id	name	description	additionalTypeId	additionalTypeName	startDate	endDate	addressLocality	addressRegion	postalCode	streetAddress	latitude	longitude	citation	sameAs
1	People's Popular Picture Palace at the Queen's Theatre	Queen's	https://homernetwork.github.io/vocabulary/venues/Theatre	Theatre	1908	1909	Dublin	Dublin		208-10 Gt Brunswick Street	53.3450197198604	-6.25483281241123	"Condon, Denis. ""Ireland's First Cinemas."" Last updated 2025. https://primitivecinema.github.io/irishcinemaproject/"	https://primitivecinema.github.io/irishcinemaproject/item.html?id=c040
2	Cinematograph Volta	Lyceum (1920)	https://homernetwork.github.io/vocabulary/venues/Cinema	Cinema	1909	1947	Dublin	Dublin		45 Mary Street	53.3489912908207	-6.26588310189653	"Condon, Denis. ""Ireland's First Cinemas."" Last updated 2025. https://primitivecinema.github.io/irishcinemaproject/"	https://primitivecinema.github.io/irishcinemaproject/item.html?id=c060
3	Picture House Sackville/O'Connell Street	Dublin Cinematograph Theatre; Picture House, Sackville Street	https://homernetwork.github.io/vocabulary/venues/Cinema	Cinema	1910		Dublin	Dublin		51 Lr Sackville/O'Connell Street	53.3478232022814	-6.25979502445097	"Condon, Denis. ""Ireland's First Cinemas."" Last updated 2025. https://primitivecinema.github.io/irishcinemaproject/"	https://primitivecinema.github.io/irishcinemaproject/item.html?id=c096
4	Rotunda Round Room		https://homernetwork.github.io/vocabulary/venues/Multipurpose_venue	Multipurpose venue	1912		Dublin	Dublin		165 Parnell Street	53.3527108902022	-6.26189051312921	"Condon, Denis. ""Ireland's First Cinemas."" Last updated 2025. https://primitivecinema.github.io/irishcinemaproject/"	https://primitivecinema.github.io/irishcinemaproject/item.html?id=c164
5	Coliseum Picture House		https://homernetwork.github.io/vocabulary/venues/Cinema	Cinema	1910	1910	Dublin	Dublin		15-16 Redmond's Hill	53.3381082212616	-6.26618331442202	"Condon, Denis. ""Ireland's First Cinemas."" Last updated 2025. https://primitivecinema.github.io/irishcinemaproject/"	https://primitivecinema.github.io/irishcinemaproject/item.html?id=c039
6	People's Picture Palace		https://homernetwork.github.io/vocabulary/venues/Cinema	Cinema	1911		Dublin	Dublin		50 Thomas Street	53.3426742919477	-6.27869520253502	"Condon, Denis. ""Ireland's First Cinemas."" Last updated 2025. https://primitivecinema.github.io/irishcinemaproject/"	https://primitivecinema.github.io/irishcinemaproject/item.html?id=c047
7	Picture House Grafton Street		https://homernetwork.github.io/vocabulary/venues/Cinema	Cinema	1911		Dublin	Dublin		72 Grafton Street	53.3413429156204	-6.26056173950858	"Condon, Denis. ""Ireland's First Cinemas."" Last updated 2025. https://primitivecinema.github.io/irishcinemaproject/"	https://primitivecinema.github.io/irishcinemaproject/item.html?id=c065
8	Kingstown Picture House		https://homernetwork.github.io/vocabulary/venues/Cinema	Cinema	1911		Kingstown	Dublin		9-10 Upper Georges Street, Kingstown	53.2919906921284	-6.13574927934657	"Condon, Denis. ""Ireland's First Cinemas."" Last updated 2025. https://primitivecinema.github.io/irishcinemaproject/"	https://primitivecinema.github.io/irishcinemaproject/item.html?id=c071
9	Dorset Picture Hall		https://homernetwork.github.io/vocabulary/venues/Cinema	Cinema	1911		Dublin	Dublin		Granby Row	53.35423834028	-6.26672438592387	"Condon, Denis. ""Ireland's First Cinemas."" Last updated 2025. https://primitivecinema.github.io/irishcinemaproject/"	https://primitivecinema.github.io/irishcinemaproject/item.html?id=c261
10	Electric Theatre, Dublin		https://homernetwork.github.io/vocabulary/venues/Cinema	Cinema	1911		Dublin	Dublin		46 Talbot Street	53.3514849744768	-6.25061503670706	"Condon, Denis. ""Ireland's First Cinemas."" Last updated 2025. https://primitivecinema.github.io/irishcinemaproject/"	https://primitivecinema.github.io/irishcinemaproject/item.html?id=c061
11	Brunswick Cinema Theatre		https://homernetwork.github.io/vocabulary/venues/Cinema	Cinema	1911		Dublin	Dublin		30 Gt Brunswick Street	53.3450469920024	-6.25323825179261	"Condon, Denis. ""Ireland's First Cinemas."" Last updated 2025. https://primitivecinema.github.io/irishcinemaproject/"	https://primitivecinema.github.io/irishcinemaproject/item.html?id=c062
12	Picturedrome, Harcourt Road	Abercorn Hall	https://homernetwork.github.io/vocabulary/venues/Cinema	Cinema	1912		Dublin	Dublin		3 1/2 Harcourt Road	53.3327605151429	-6.26427059653838	"Condon, Denis. ""Ireland's First Cinemas."" Last updated 2025. https://primitivecinema.github.io/irishcinemaproject/"	https://primitivecinema.github.io/irishcinemaproject/item.html?id=c056
13	Gillooly Hall		https://homernetwork.github.io/vocabulary/venues/Multipurpose_venue	Multipurpose venue	1911		Sligo	Sligo		Adelaide Street	54.269648	-8.47965	"Condon, Denis. ""Ireland's First Cinemas."" Last updated 2025. https://primitivecinema.github.io/irishcinemaproject/"	https://primitivecinema.github.io/irishcinemaproject/item.html?id=c059
14	Sligo Picture Theatre		https://homernetwork.github.io/vocabulary/venues/Cinema	Cinema	1911		Sligo	Sligo		Thomas Street	54.27095	-8.471463	"Condon, Denis. ""Ireland's First Cinemas."" Last updated 2025. https://primitivecinema.github.io/irishcinemaproject/"	https://primitivecinema.github.io/irishcinemaproject/item.html?id=c001
15	Mountjoy Picture and Variety Palace			Planned cinema	1912		Dublin	Dublin		1-2 Rutland Place, Summerhill	53.3566020303841	-6.25189333897673	"Condon, Denis. ""Ireland's First Cinemas."" Last updated 2025. https://primitivecinema.github.io/irishcinemaproject/"	https://primitivecinema.github.io/irishcinemaproject/item.html?id=c041
16	Irish Cinema	"Hibernian Electric Theatre (January 1916 ""Under entirely new management"" ad ET"	https://homernetwork.github.io/vocabulary/venues/Cinema	Cinema	1912		Dublin	Dublin		113 Capel Streeet	53.3492133824993	-6.26920028330238	"Condon, Denis. ""Ireland's First Cinemas."" Last updated 2025. https://primitivecinema.github.io/irishcinemaproject/"	https://primitivecinema.github.io/irishcinemaproject/item.html?id=c042
17	Camden Picture House		https://homernetwork.github.io/vocabulary/venues/Cinema	Cinema	1912		Dublin	Dublin		55 Lr Camden Street	53.3339230709812	-6.2654519911923	"Condon, Denis. ""Ireland's First Cinemas."" Last updated 2025. https://primitivecinema.github.io/irishcinemaproject/"	https://primitivecinema.github.io/irishcinemaproject/item.html?id=c002
18	Assembly Picture Hall		https://homernetwork.github.io/vocabulary/venues/Cinema	Cinema	1912		Dublin	Dublin		Serpentine Ave, Sandymount	53.3317605183574	-6.22312740845691	"Condon, Denis. ""Ireland's First Cinemas."" Last updated 2025. https://primitivecinema.github.io/irishcinemaproject/"	https://primitivecinema.github.io/irishcinemaproject/item.html?id=c038
19	Phoenix Picture Palace		https://homernetwork.github.io/vocabulary/venues/Cinema	Cinema	1912		Dublin	Dublin		7-9 Ellis Quay	53.3468165317068	-6.28115107953364	"Condon, Denis. ""Ireland's First Cinemas."" Last updated 2025. https://primitivecinema.github.io/irishcinemaproject/"	https://primitivecinema.github.io/irishcinemaproject/item.html?id=c048
20	Theatre de Luxe		https://homernetwork.github.io/vocabulary/venues/Cinema	Cinema	1912		Dublin	Dublin		86 Lr Camden Street	53.3359979549041	-6.2656547582461	"Condon, Denis. ""Ireland's First Cinemas."" Last updated 2025. https://primitivecinema.github.io/irishcinemaproject/"	https://primitivecinema.github.io/irishcinemaproject/item.html?id=c133
26	Mary Street Picture House		https://homernetwork.github.io/vocabulary/venues/Cinema	Cinema	1912		Dublin	Dublin		12-13 Mary Street	53.3485725787987	-6.2674838687861	"Condon, Denis. ""Ireland's First Cinemas."" Last updated 2025. https://primitivecinema.github.io/irishcinemaproject/"	https://primitivecinema.github.io/irishcinemaproject/item.html?id=c003
27	Dame Street Picture House		https://homernetwork.github.io/vocabulary/venues/Cinema	Cinema	1912		Dublin	Dublin		17 Dame Street	53.3440410465907	-6.2650616312278	"Condon, Denis. ""Ireland's First Cinemas."" Last updated 2025. https://primitivecinema.github.io/irishcinemaproject/"	https://primitivecinema.github.io/irishcinemaproject/item.html?id=c005
30	Clontarf Electric Theatre	Town Hall, Clontarf; Seaside Picture Palace	https://homernetwork.github.io/vocabulary/venues/Cinema	Cinema	1913		Dublin	Dublin		61 Clontarf Road	53.3627009788791	-6.21743035790481	"Condon, Denis. ""Ireland's First Cinemas."" Last updated 2025. https://primitivecinema.github.io/irishcinemaproject/"	https://primitivecinema.github.io/irishcinemaproject/item.html?id=c037
31	Grand Cinema		https://homernetwork.github.io/vocabulary/venues/Cinema	Cinema	1913	1916	Dublin	Dublin		10-11 Lr Sackville/O'Connell Street	53.3483018358188	-6.25919011536645	"Condon, Denis. ""Ireland's First Cinemas."" Last updated 2025. https://primitivecinema.github.io/irishcinemaproject/"	https://primitivecinema.github.io/irishcinemaproject/item.html?id=c043
32	Cosy Cinema	Corona Cinema	https://homernetwork.github.io/vocabulary/venues/Cinema	Cinema	1914		Dublin	Dublin		71b Parnell Street	53.3520429994613	-6.26229087634573	"Condon, Denis. ""Ireland's First Cinemas."" Last updated 2025. https://primitivecinema.github.io/irishcinemaproject/"	https://primitivecinema.github.io/irishcinemaproject/item.html?id=c044
33	Phibsboro Picture House		https://homernetwork.github.io/vocabulary/venues/Cinema	Cinema	1914		Dublin	Dublin		Blaquiere Bridge, Phibsboro	53.3605860198631	-6.27159003049965	"Condon, Denis. ""Ireland's First Cinemas."" Last updated 2025. https://primitivecinema.github.io/irishcinemaproject/"	https://primitivecinema.github.io/irishcinemaproject/item.html?id=c057
34	Bohemian Picture Theatre		https://homernetwork.github.io/vocabulary/venues/Cinema	Cinema	1914		Dublin	Dublin		154-55 Phibsboro Road	53.3614133316463	-6.27242911479938	"Condon, Denis. ""Ireland's First Cinemas."" Last updated 2025. https://primitivecinema.github.io/irishcinemaproject/"	https://primitivecinema.github.io/irishcinemaproject/item.html?id=c058
35	Masterpiece Theatre		https://homernetwork.github.io/vocabulary/venues/Cinema	Cinema	1914		Dublin	Dublin		99 Talbot Street	53.3502155686037	-6.25711380875632	"Condon, Denis. ""Ireland's First Cinemas."" Last updated 2025. https://primitivecinema.github.io/irishcinemaproject/"	https://primitivecinema.github.io/irishcinemaproject/item.html?id=c069
36	Pillar Picture House		https://homernetwork.github.io/vocabulary/venues/Cinema	Cinema	1914		Dublin	Dublin		62 Upr Sackville/O'Connell Street	53.3502906068182	-6.26084575776168	"Condon, Denis. ""Ireland's First Cinemas."" Last updated 2025. https://primitivecinema.github.io/irishcinemaproject/"	https://primitivecinema.github.io/irishcinemaproject/item.html?id=c070
37	Carlton Cinema Theatre		https://homernetwork.github.io/vocabulary/venues/Cinema	Cinema	1915		Dublin	Dublin		52 Upr Sackville/O'Connell Street	53.3509663547867	-6.26148707538648	"Condon, Denis. ""Ireland's First Cinemas."" Last updated 2025. https://primitivecinema.github.io/irishcinemaproject/"	https://primitivecinema.github.io/irishcinemaproject/item.html?id=c080
38	Sandford Picture House		https://homernetwork.github.io/vocabulary/venues/Cinema	Cinema	1914		Dublin	Dublin		5 Lr Sandford Road	53.323200839374	-6.2498584897534	"Condon, Denis. ""Ireland's First Cinemas."" Last updated 2025. https://primitivecinema.github.io/irishcinemaproject/"	https://primitivecinema.github.io/irishcinemaproject/item.html?id=c122
39	Town Hall, Rathmines		https://homernetwork.github.io/vocabulary/venues/Multipurpose_venue	Multipurpose venue	1912	1922	Dublin	Dublin		Lr Rathmines Road	53.3240763258234	-6.26518815212206	"Condon, Denis. ""Ireland's First Cinemas."" Last updated 2025. https://primitivecinema.github.io/irishcinemaproject/"	https://primitivecinema.github.io/irishcinemaproject/item.html?id=c183
40	Princess Cinema		https://homernetwork.github.io/vocabulary/venues/Cinema	Cinema	1913		Dublin	Dublin		145 Lr Rathmines Road	53.3252876962593	-6.26541698717369	"Condon, Denis. ""Ireland's First Cinemas."" Last updated 2025. https://primitivecinema.github.io/irishcinemaproject/"	https://primitivecinema.github.io/irishcinemaproject/item.html?id=c238
41	Manor Street Picture House		https://homernetwork.github.io/vocabulary/venues/Cinema	Cinema	1920		Dublin	Dublin		60-1 Manor Street	53.352885295027	-6.28500356638771	"Condon, Denis. ""Ireland's First Cinemas."" Last updated 2025. https://primitivecinema.github.io/irishcinemaproject/"	https://primitivecinema.github.io/irishcinemaproject/item.html?id=c006
42	Theatre Royal Pictures		https://homernetwork.github.io/vocabulary/venues/Theatre	Theatre	1914		Dublin	Dublin		Hawkins Street	53.3466218727181	-6.25673918211391	"Condon, Denis. ""Ireland's First Cinemas."" Last updated 2025. https://primitivecinema.github.io/irishcinemaproject/"	https://primitivecinema.github.io/irishcinemaproject/item.html?id=c007
43	Cinema Palace		https://homernetwork.github.io/vocabulary/venues/Multipurpose_venue	Multipurpose venue	1912		Dublin	Dublin		Townsend Street	53.3460831079192	-6.25611547225146	"Condon, Denis. ""Ireland's First Cinemas."" Last updated 2025. https://primitivecinema.github.io/irishcinemaproject/"	https://primitivecinema.github.io/irishcinemaproject/item.html?id=c008
44	Kingstown Pavilion		https://homernetwork.github.io/vocabulary/venues/Multipurpose_venue	Multipurpose venue	1910	1974	Kingstown	Dublin		Royal Marine Road	53.2940584474152	-6.13363367312334	"Condon, Denis. ""Ireland's First Cinemas."" Last updated 2025. https://primitivecinema.github.io/irishcinemaproject/"	https://primitivecinema.github.io/irishcinemaproject/item.html?id=c009
45	Assembly Rooms Picturedrome		https://homernetwork.github.io/vocabulary/venues/Cinema	Cinema	1909		Cork	Cork		22 South Mall	51.896563607841	-8.47133376761168	"Condon, Denis. ""Ireland's First Cinemas."" Last updated 2025. https://primitivecinema.github.io/irishcinemaproject/"	https://primitivecinema.github.io/irishcinemaproject/item.html?id=c010
46	Palace Theatre, Cork		https://homernetwork.github.io/vocabulary/venues/Cinema	Cinema	#NUM!		Cork	Cork		12 King Street (now MacCuratin Street)	51.9012891534694	-8.46830201520326	"Condon, Denis. ""Ireland's First Cinemas."" Last updated 2025. https://primitivecinema.github.io/irishcinemaproject/"	https://primitivecinema.github.io/irishcinemaproject/item.html?id=c011
47	Opera House, Cork		https://homernetwork.github.io/vocabulary/venues/Theatre	Theatre	#NUM!		Cork	Cork		Lavitts Quay	51.9002715967204	-8.47286416680125	"Condon, Denis. ""Ireland's First Cinemas."" Last updated 2025. https://primitivecinema.github.io/irishcinemaproject/"	https://primitivecinema.github.io/irishcinemaproject/item.html?id=c013
48	St. George's Hall		https://homernetwork.github.io/vocabulary/venues/Theatre	Theatre	1908	1914	Belfast	Antrim		35 High Street	54.5998311488439	-5.92706513201655	"Condon, Denis. ""Ireland's First Cinemas."" Last updated 2025. https://primitivecinema.github.io/irishcinemaproject/"	https://primitivecinema.github.io/irishcinemaproject/item.html?id=c014
49	Alhambra Variety Theatre		https://homernetwork.github.io/vocabulary/venues/Theatre	Theatre	1908		Belfast	Antrim		39-43 North Street	54.6015241081796	-5.92993428583522	"Condon, Denis. ""Ireland's First Cinemas."" Last updated 2025. https://primitivecinema.github.io/irishcinemaproject/"	https://primitivecinema.github.io/irishcinemaproject/item.html?id=c045
50	Kelvin Picture Palace		https://homernetwork.github.io/vocabulary/venues/Cinema	Cinema	1910		Belfast	Antrim		17-18 College Square East	54.5965996888806	-5.93439706088504	"Condon, Denis. ""Ireland's First Cinemas."" Last updated 2025. https://primitivecinema.github.io/irishcinemaproject/"	https://primitivecinema.github.io/irishcinemaproject/item.html?id=c052
51	Shankill Picturedrome		https://homernetwork.github.io/vocabulary/venues/Cinema	Cinema	1910		Belfast	Antrim		148 Shankill Road	54.603827828991	-5.94668007227882	"Condon, Denis. ""Ireland's First Cinemas."" Last updated 2025. https://primitivecinema.github.io/irishcinemaproject/"	https://primitivecinema.github.io/irishcinemaproject/item.html?id=c064
52	Royal Avenue Picture House	Picture House, Belfast	https://homernetwork.github.io/vocabulary/venues/Cinema	Cinema	1911		Belfast	Antrim		34 Royal Avenue	54.601057229521	-5.93143878713481	"Condon, Denis. ""Ireland's First Cinemas."" Last updated 2025. https://primitivecinema.github.io/irishcinemaproject/"	https://primitivecinema.github.io/irishcinemaproject/item.html?id=c066
53	Gaiety Theatre		https://homernetwork.github.io/vocabulary/venues/Theatre	Theatre	1899		Dublin	Dublin		South King Street	53.3404117257993	-6.26156339066374	"Condon, Denis. ""Ireland's First Cinemas."" Last updated 2025. https://primitivecinema.github.io/irishcinemaproject/"	https://primitivecinema.github.io/irishcinemaproject/item.html?id=c109
54	Tivoli, Dublin		https://homernetwork.github.io/vocabulary/venues/Theatre	Theatre	1899		Dublin	Dublin		12-13 Burgh Quay	53.3473073777727	-6.25617186935662	"Condon, Denis. ""Ireland's First Cinemas."" Last updated 2025. https://primitivecinema.github.io/irishcinemaproject/"	https://primitivecinema.github.io/irishcinemaproject/item.html?id=c177
55	Electric Theatre, Cork		https://homernetwork.github.io/vocabulary/venues/Cinema	Cinema	1909	1910	Cork	Cork		9 Maylor Street	51.898762	-8.468573	"Condon, Denis. ""Ireland's First Cinemas."" Last updated 2025. https://primitivecinema.github.io/irishcinemaproject/"	https://primitivecinema.github.io/irishcinemaproject/item.html?id=c242
56	Caherciveen Cinema		https://homernetwork.github.io/vocabulary/venues/Cinema	Cinema	1917		Caherciveen	Kerry			51.947375	-10.221657	"Condon, Denis. ""Ireland's First Cinemas."" Last updated 2025. https://primitivecinema.github.io/irishcinemaproject/"	https://primitivecinema.github.io/irishcinemaproject/item.html?id=c096
57	Cinema, Waterville		https://homernetwork.github.io/vocabulary/venues/Cinema	Cinema	1916		Waterville	Kerry			51.8279086170285	-10.1725589899527	"Condon, Denis. ""Ireland's First Cinemas."" Last updated 2025. https://primitivecinema.github.io/irishcinemaproject/"	https://primitivecinema.github.io/irishcinemaproject/item.html?id=c126
58	Galway Cinema Theatre	Gaiety, Galway Empire Cinema	https://homernetwork.github.io/vocabulary/venues/Cinema	Cinema	1912		Galway	Galway		William Street	53.273913925468	-9.05205114091869	"Condon, Denis. ""Ireland's First Cinemas."" Last updated 2025. https://primitivecinema.github.io/irishcinemaproject/"	https://primitivecinema.github.io/irishcinemaproject/item.html?id=c004
59	USA Picture Palace	Court Theatre	https://homernetwork.github.io/vocabulary/venues/Cinema	Cinema	1911		Galway	Galway		Middle Street	53.2717416829448	-9.0526672186913	"Condon, Denis. ""Ireland's First Cinemas."" Last updated 2025. https://primitivecinema.github.io/irishcinemaproject/"	https://primitivecinema.github.io/irishcinemaproject/item.html?id=c012
60	Picturedrome, Tralee		https://homernetwork.github.io/vocabulary/venues/Cinema	Cinema	1914		Tralee	Kerry		33 Upper Castle Street	52.269111	-9.701882	"Condon, Denis. ""Ireland's First Cinemas."" Last updated 2025. https://primitivecinema.github.io/irishcinemaproject/"	https://primitivecinema.github.io/irishcinemaproject/item.html?id=c015
61	Theatre Royal, Tralee		https://homernetwork.github.io/vocabulary/venues/Multipurpose_venue	Multipurpose venue	1912		Tralee	Kerry		Godfrey Place	52.267871	-9.70892	"Condon, Denis. ""Ireland's First Cinemas."" Last updated 2025. https://primitivecinema.github.io/irishcinemaproject/"	https://primitivecinema.github.io/irishcinemaproject/item.html?id=c016
62	Protestant Hall		https://homernetwork.github.io/vocabulary/venues/Multipurpose_venue	Multipurpose venue	1899		Ballymena	Antrim		Galgorn Road	54.8645827717333	-6.28212024390975	"Condon, Denis. ""Ireland's First Cinemas."" Last updated 2025. https://primitivecinema.github.io/irishcinemaproject/"	https://primitivecinema.github.io/irishcinemaproject/item.html?id=c017
63	CPA Assembly Hall		https://homernetwork.github.io/vocabulary/venues/Multipurpose_venue	Multipurpose venue	1899		Belfast	Antrim		May Street	54.59605	-5.9344	"Condon, Denis. ""Ireland's First Cinemas."" Last updated 2025. https://primitivecinema.github.io/irishcinemaproject/"	https://primitivecinema.github.io/irishcinemaproject/item.html?id=c018
64	Princess Picture Palace		https://homernetwork.github.io/vocabulary/venues/Cinema	Cinema	1910	1917	Belfast	Down		308 Newtownards Road	54.598658	-5.89541	"Condon, Denis. ""Ireland's First Cinemas."" Last updated 2025. https://primitivecinema.github.io/irishcinemaproject/"	https://primitivecinema.github.io/irishcinemaproject/item.html?id=c019
65	Shaftesbury Pictoria	The Picture House, Shaftesbury Square	https://homernetwork.github.io/vocabulary/venues/Cinema	Cinema	1910		Belfast	Antrim		6 Shaftesbury Square	54.589935	-5.933521	"Condon, Denis. ""Ireland's First Cinemas."" Last updated 2025. https://primitivecinema.github.io/irishcinemaproject/"	https://primitivecinema.github.io/irishcinemaproject/item.html?id=c020
66	Royal Hippodrome		https://homernetwork.github.io/vocabulary/venues/Theatre	Theatre	1907		Belfast	Antrim		Great Victoria Street (Grosvenor Road intersection)	54.595542	-5.935155	"Condon, Denis. ""Ireland's First Cinemas."" Last updated 2025. https://primitivecinema.github.io/irishcinemaproject/"	https://primitivecinema.github.io/irishcinemaproject/item.html?id=c021
67	Empire, Belfast		https://homernetwork.github.io/vocabulary/venues/Theatre	Theatre	1899		Belfast	Antrim		Victoria Square	54.59832	-5.926073	"Condon, Denis. ""Ireland's First Cinemas."" Last updated 2025. https://primitivecinema.github.io/irishcinemaproject/"	https://primitivecinema.github.io/irishcinemaproject/item.html?id=c022
68	East Belfast YMCA		https://homernetwork.github.io/vocabulary/venues/Multipurpose_venue	Multipurpose venue	1899		Belfast	Antrim		Albertbridge Road	54.595246	-5.901925	"Condon, Denis. ""Ireland's First Cinemas."" Last updated 2025. https://primitivecinema.github.io/irishcinemaproject/"	https://primitivecinema.github.io/irishcinemaproject/item.html?id=c032
69	Shankill Road Mission		https://homernetwork.github.io/vocabulary/venues/Multipurpose_venue	Multipurpose venue	1900		Belfast	Antrim		116 Shankill Road	54.603713	-5.945519	"Condon, Denis. ""Ireland's First Cinemas."" Last updated 2025. https://primitivecinema.github.io/irishcinemaproject/"	https://primitivecinema.github.io/irishcinemaproject/item.html?id=c036
70	Panopticon Picture Theatre		https://homernetwork.github.io/vocabulary/venues/Cinema	Cinema	1912		Belfast	Antrim		42-6 High Street	54.600309	-5.926606	"Condon, Denis. ""Ireland's First Cinemas."" Last updated 2025. https://primitivecinema.github.io/irishcinemaproject/"	https://primitivecinema.github.io/irishcinemaproject/item.html?id=c051
71	Mountpottinger Picturedrome	Belfast Picturedrome	https://homernetwork.github.io/vocabulary/venues/Cinema	Cinema	1911		Belfast	Down		112 Mountpottinger Road/Corner	54.595569	-5.905554	"Condon, Denis. ""Ireland's First Cinemas."" Last updated 2025. https://primitivecinema.github.io/irishcinemaproject/"	https://primitivecinema.github.io/irishcinemaproject/item.html?id=c054
72	Grosvenor Hall		https://homernetwork.github.io/vocabulary/venues/Multipurpose_venue	Multipurpose venue	1899		Belfast	Antrim		5 Glengall Street	54.595279	-5.936101	"Condon, Denis. ""Ireland's First Cinemas."" Last updated 2025. https://primitivecinema.github.io/irishcinemaproject/"	https://primitivecinema.github.io/irishcinemaproject/item.html?id=c055
73	Cosy Corner	Electric Picture Palace, Empire Palace	https://homernetwork.github.io/vocabulary/venues/Cinema	Cinema	1911		Armagh	Armagh		Russell Street	54.348827	-6.653026	"Condon, Denis. ""Ireland's First Cinemas."" Last updated 2025. https://primitivecinema.github.io/irishcinemaproject/"	https://primitivecinema.github.io/irishcinemaproject/item.html?id=c063
75	Westmeath County Hall		https://homernetwork.github.io/vocabulary/venues/Multipurpose_venue	Multipurpose venue	1913		Mullingar	Westmeath		Mount Street	53.523821	-7.340367	"Condon, Denis. ""Ireland's First Cinemas."" Last updated 2025. https://primitivecinema.github.io/irishcinemaproject/"	https://primitivecinema.github.io/irishcinemaproject/item.html?id=c072
76	Rink Picture Palace		https://homernetwork.github.io/vocabulary/venues/Cinema	Cinema	1913	1916	Sligo	Sligo		Adelaide Street	54.270997	-8.47995	"Condon, Denis. ""Ireland's First Cinemas."" Last updated 2025. https://primitivecinema.github.io/irishcinemaproject/"	https://primitivecinema.github.io/irishcinemaproject/item.html?id=c089
77	Rink Palace, Limerick	Electric Theatre Palace, Rink Picture Palace	https://homernetwork.github.io/vocabulary/venues/Cinema	Cinema	1910	1917	Limerick	Limerick		5 Wellesley Place (now Clontarf Place)	52.657518	-8.634028	"Condon, Denis. ""Ireland's First Cinemas."" Last updated 2025. https://primitivecinema.github.io/irishcinemaproject/"	https://primitivecinema.github.io/irishcinemaproject/item.html?id=c094
78	Picture Palace, Newry	Electric Picture Palace, Premier Palace	https://homernetwork.github.io/vocabulary/venues/Cinema	Cinema	1910		Newry	Down		Canal Street	54.1793768124011	-6.33814093913817	"Condon, Denis. ""Ireland's First Cinemas."" Last updated 2025. https://primitivecinema.github.io/irishcinemaproject/"	https://primitivecinema.github.io/irishcinemaproject/item.html?id=c095
79	Town Hall, Sligo		https://homernetwork.github.io/vocabulary/venues/Multipurpose_venue	Multipurpose venue	#NUM!		Sligo	Sligo		Quay Street	54.273036	-8.475952	"Condon, Denis. ""Ireland's First Cinemas."" Last updated 2025. https://primitivecinema.github.io/irishcinemaproject/"	https://primitivecinema.github.io/irishcinemaproject/item.html?id=c100
80	Gaiety Bijou	Gaiety de luxe, Kinema de Luxe, Kinema de Luxe	https://homernetwork.github.io/vocabulary/venues/Cinema	Cinema	1912		Limerick	Limerick		45 Georges Street	52.6615262058661	-8.62885971172132	"Condon, Denis. ""Ireland's First Cinemas."" Last updated 2025. https://primitivecinema.github.io/irishcinemaproject/"	https://primitivecinema.github.io/irishcinemaproject/item.html?id=c101
81	Coliseum, Cork		https://homernetwork.github.io/vocabulary/venues/Cinema	Cinema	1913		Cork	Cork		1-2 King Street (now MacCurtain Street)				https://primitivecinema.github.io/irishcinemaproject/item.html?id=c123
82	Imperial Cinema, Cork		https://homernetwork.github.io/vocabulary/venues/Cinema	Cinema	1913		Cork	Cork		43-4 George's Street (now Oliver Plunkett Street)				https://primitivecinema.github.io/irishcinemaproject/item.html?id=c124
83	Tivoli Picture Theatre		https://homernetwork.github.io/vocabulary/venues/Cinema	Cinema	1912		Cork	Cork		21 Merchants Quay				https://primitivecinema.github.io/irishcinemaproject/item.html?id=c125
84	YMCA Lecture Hall		https://homernetwork.github.io/vocabulary/venues/Multipurpose_venue	Multipurpose venue	1899		Cork	Cork		11 Malboro Street				https://primitivecinema.github.io/irishcinemaproject/item.html?id=c130
85	Athenaeum Pictures	Athenaeum Hall Picturedrome	https://homernetwork.github.io/vocabulary/venues/Multipurpose_venue	Multipurpose venue	1914		Limerick	Limerick		2 Cecil Street	52.660852	-8.627156		https://primitivecinema.github.io/irishcinemaproject/item.html?id=c142
86	Palace, Bangor	Electric Palace	https://homernetwork.github.io/vocabulary/venues/Cinema	Cinema	1913		Bangor	Down		Quay Street				https://primitivecinema.github.io/irishcinemaproject/item.html?id=c136
87	Bangor Picture House		https://homernetwork.github.io/vocabulary/venues/Cinema	Cinema	1913		Bangor	Down		Main Street				https://primitivecinema.github.io/irishcinemaproject/item.html?id=c182
88	Electric Picture Palace	Silver Cinema	https://homernetwork.github.io/vocabulary/venues/Cinema	Cinema	1910	1915	Belfast	Antrim		19-21 York  Street	54.603532	-5.929635		https://primitivecinema.github.io/irishcinemaproject/item.html?id=c202
89	Clonard Picture House		https://homernetwork.github.io/vocabulary/venues/Cinema	Cinema	1913		Belfast	Antrim		140 Falls Road	54.597726	-5.952208		https://primitivecinema.github.io/irishcinemaproject/item.html?id=c212
90	Central Picture Theatre		https://homernetwork.github.io/vocabulary/venues/Cinema	Cinema	1913		Belfast	Antrim		Smithfield	54.600556	-5.932859		https://primitivecinema.github.io/irishcinemaproject/item.html?id=c250
91	West Belfast Picture Theatre	West Belfast Electric Theatre	https://homernetwork.github.io/vocabulary/venues/Cinema	Cinema	1912		Belfast	Antrim		74 Albert Street				https://primitivecinema.github.io/irishcinemaproject/item.html?id=c129
92	Picture House, Donaghadee		https://homernetwork.github.io/vocabulary/venues/Cinema	Cinema	1914		Donaghadee	Down		Manor Street				https://primitivecinema.github.io/irishcinemaproject/item.html?id=c127
93	Crumlin Picture House		https://homernetwork.github.io/vocabulary/venues/Cinema	Cinema	1914		Belfast	Antrim		Crumlin Road				https://primitivecinema.github.io/irishcinemaproject/item.html?id=c295
94	Great Northern Kinema	Kinema House	https://homernetwork.github.io/vocabulary/venues/Cinema	Cinema	1914		Belfast	Antrim		Kinema House, Great Victoria Street				https://primitivecinema.github.io/irishcinemaproject/item.html?id=c176
95	Picture Palace , Newtownards	Frances Street Cinema	https://homernetwork.github.io/vocabulary/venues/Cinema	Cinema	1899		Newtownards	Down		Frances Street				https://primitivecinema.github.io/irishcinemaproject/item.html?id=c175
96	Empire, Dublin	Star Theatre of Varieties (1890s), Olympia Theatre	https://homernetwork.github.io/vocabulary/venues/Theatre	Theatre	1899		Dublin	Dublin		Dame Street				https://primitivecinema.github.io/irishcinemaproject/item.html?id=c308
97	Picture Palace, Omagh	Omagh Picture House	https://homernetwork.github.io/vocabulary/venues/Cinema	Cinema	1912		Omagh	Tyrone		45 High Street	54.599997	-7.302008		https://primitivecinema.github.io/irishcinemaproject/item.html?id=c294
98	West-End Picture House		https://homernetwork.github.io/vocabulary/venues/Cinema	Cinema	1913		Belfast	Antrim		108 Shankill Road				https://primitivecinema.github.io/irishcinemaproject/item.html?id=c148
99	Coleraine Picture Palace		https://homernetwork.github.io/vocabulary/venues/Cinema	Cinema	1912		Coleraine	Derry		Union Street				https://primitivecinema.github.io/irishcinemaproject/item.html?id=c121
100	Imperial, Belfast		https://homernetwork.github.io/vocabulary/venues/Cinema	Cinema	1914		Belfast	Antrim		Corn Market				https://primitivecinema.github.io/irishcinemaproject/item.html?id=c170
101	Picture House, Newtownards		https://homernetwork.github.io/vocabulary/venues/Cinema	Cinema	1899	1920	Newtownards	Down		Regent Street				https://primitivecinema.github.io/irishcinemaproject/item.html?id=c235
102	Lisburn  Palace		https://homernetwork.github.io/vocabulary/venues/Cinema	Cinema	1912		Lisburn	Antrim		Railway Street	54.512935	-6.043639		https://primitivecinema.github.io/irishcinemaproject/item.html?id=c086
103	Picture House, Lisburn		https://homernetwork.github.io/vocabulary/venues/Cinema	Cinema	1912		Lisburn	Antrim		Market Street	54.511332	-6.044838		https://primitivecinema.github.io/irishcinemaproject/item.html?id=c087
104	Kilkenny Cinema		https://homernetwork.github.io/vocabulary/venues/Cinema	Cinema	1914		Kilkenny	Kilkenny		1 Parliament Street				https://primitivecinema.github.io/irishcinemaproject/item.html?id=c023
105	Skibbereen Picture Palace		https://homernetwork.github.io/vocabulary/venues/Cinema	Cinema	1919		Skibbereen	Cork		North Street	51.550619	-9.265383		https://primitivecinema.github.io/irishcinemaproject/item.html?id=c024
106	Roscrea Cinema		https://homernetwork.github.io/vocabulary/venues/Cinema	Cinema	1914		Roscrea	Tipperary		Gaol Road	52.953641	-7.793604		https://primitivecinema.github.io/irishcinemaproject/item.html?id=c033
107	Coliseum, Belfast		https://homernetwork.github.io/vocabulary/venues/Cinema	Cinema	1915		Belfast	Antrim		Grosvenor Road (Barrack Street intersection)				https://primitivecinema.github.io/irishcinemaproject/item.html?id=c067
108	Park Street Picture House		https://homernetwork.github.io/vocabulary/venues/Cinema	Cinema	1912		Dundalk	Louth		71 Park Street	54.0019569736261	-6.40381243024711		https://primitivecinema.github.io/irishcinemaproject/item.html?id=c068
109	New Princess		https://homernetwork.github.io/vocabulary/venues/Cinema	Cinema	1912		Belfast	Down		307 Newtownards Road	54.598364	-5.895579		https://primitivecinema.github.io/irishcinemaproject/item.html?id=c077
110	Blackrock Cinema Theatre	Grand Picture House/Cinema, Blackrock	https://homernetwork.github.io/vocabulary/venues/Cinema	Cinema	1914	1961	Blackrock	Dublin		13 Main Street				https://primitivecinema.github.io/irishcinemaproject/item.html?id=c081
111	Fr Mathew Hall		https://homernetwork.github.io/vocabulary/venues/Multipurpose_venue	Multipurpose venue	1912		Cork	Cork		8 Queen Street (now Fr Mathew Street)				https://primitivecinema.github.io/irishcinemaproject/item.html?id=c082
112	St Mary's Hall		https://homernetwork.github.io/vocabulary/venues/Multipurpose_venue	Multipurpose venue	1912		Cork	Cork		St Mary's Road				https://primitivecinema.github.io/irishcinemaproject/item.html?id=c105
113	Empire Picture Palace	Electric Picture Palace, Emerald Picture House	https://homernetwork.github.io/vocabulary/venues/Cinema	Cinema	1913		Arklow	Wicklow		South Quay	52.798065	-6.152074		https://primitivecinema.github.io/irishcinemaproject/item.html?id=c108
114	Picture Palace, Mullingar	Fitzmaurice's	https://homernetwork.github.io/vocabulary/venues/Cinema	Cinema	1914		Mullingar	Westmeath		Dominick Street				https://primitivecinema.github.io/irishcinemaproject/item.html?id=c134
115	Grand Cinema, Lurgan	Hippodrome	https://homernetwork.github.io/vocabulary/venues/Cinema	Cinema	1914	1921	Lurgan	Armagh		48 Church Place, Main Street	54.4631357159175	-6.3333562198262		https://primitivecinema.github.io/irishcinemaproject/item.html?id=c128
116	Frontier Picture House	Mitchel Memorial Hall, Foresters' Hall	https://homernetwork.github.io/vocabulary/venues/Cinema	Cinema	1913		Newry	Down		2-3 Needham Place (now John Mitchel Place)	54.1720610532044	-6.33737463513573		https://primitivecinema.github.io/irishcinemaproject/item.html?id=c139
117	Imperial, Newry		https://homernetwork.github.io/vocabulary/venues/Cinema	Cinema	1912		Newry	Down		St Mary Street	54.1752519331554	-6.33903597301417		https://primitivecinema.github.io/irishcinemaproject/item.html?id=c205
118	Cinema Theatre, Navan		https://homernetwork.github.io/vocabulary/venues/Cinema	Cinema	1914		Navan	Meath		Academy Street	53.650350300507	-6.68160836486751		https://primitivecinema.github.io/irishcinemaproject/item.html?id=c222
119	Navan Picture Palace		https://homernetwork.github.io/vocabulary/venues/Cinema	Cinema	1914		Navan	Meath		17 Ludlow Street	53.6506051687143	-6.68194130284927		https://primitivecinema.github.io/irishcinemaproject/item.html?id=c225
120	Youghal Picture Palace		https://homernetwork.github.io/vocabulary/venues/Cinema	Cinema	1914		Youghal	Cork		Friar Street	51.9506062849108	-7.84459910400381		https://primitivecinema.github.io/irishcinemaproject/item.html?id=c228
121	Horgan's Picture Palace		https://homernetwork.github.io/vocabulary/venues/Cinema	Cinema	1917		Youghal	Cork		Friar Street	51.9504671195182	-7.84452446626076		https://primitivecinema.github.io/irishcinemaproject/item.html?id=c230
122	National Picture Palace	National Picture House; Bosco's (1917)	https://homernetwork.github.io/vocabulary/venues/Cinema	Cinema	1899		Mullingar	Westmeath		Dominick Street				https://primitivecinema.github.io/irishcinemaproject/item.html?id=c099
123	Picture House, Carlow		https://homernetwork.github.io/vocabulary/venues/Cinema	Cinema	1915		Carlow	Carlow		Burrin Street	52.836021	-6.932108		https://primitivecinema.github.io/irishcinemaproject/item.html?id=c205
124	Picture House, Lurgan		https://homernetwork.github.io/vocabulary/venues/Cinema	Cinema	1899		Lurgan	Armagh						https://primitivecinema.github.io/irishcinemaproject/item.html?id=c190
125	Clonmel Picture Theatre	Magner's Theatre	https://homernetwork.github.io/vocabulary/venues/Cinema	Cinema	1914		Clonmel	Tipperary		1 Davis Road	52.3547197326467	-7.69350884036986		https://primitivecinema.github.io/irishcinemaproject/item.html?id=c205
126	Cinema House, Drogheda	Whitworth Electric Picture Hall (1911)	https://homernetwork.github.io/vocabulary/venues/Cinema	Cinema	1911		Drogheda	Louth		Lawrence Street				https://primitivecinema.github.io/irishcinemaproject/item.html?id=c206
127	Shamrock Picture House		https://homernetwork.github.io/vocabulary/venues/Cinema	Cinema	1915		Arklow	Wicklow		21 Main Street	52.798162	-6.15455		https://primitivecinema.github.io/irishcinemaproject/item.html?id=c025
128	Picture House, Portadown		https://homernetwork.github.io/vocabulary/venues/Cinema	Cinema	1912		Portadown	Armagh		Bridge Street				https://primitivecinema.github.io/irishcinemaproject/item.html?id=c026
129	People's Picture Palace	City Cinema	https://homernetwork.github.io/vocabulary/venues/Cinema	Cinema	1913		Armagh	Armagh		8 Market Street				https://primitivecinema.github.io/irishcinemaproject/item.html?id=c027
130	Dundalk Electric Theatre	Market Street Picture House	https://homernetwork.github.io/vocabulary/venues/Cinema	Cinema	1913		Dundalk	Louth		Market Street	54.005186	-6.401164		https://primitivecinema.github.io/irishcinemaproject/item.html?id=c028
131	Town Hall Picture Palace		https://homernetwork.github.io/vocabulary/venues/Multipurpose_venue	Multipurpose venue	1912		Dundalk	Louth		Crowe Street	54.0046431059327	-6.40074509206726		https://primitivecinema.github.io/irishcinemaproject/item.html?id=c029
132	Picture Palace, Derry		https://homernetwork.github.io/vocabulary/venues/Cinema	Cinema	1912		Derry	Derry		34 Shipquay Street	54.9969081701951	-7.32024291643863		https://primitivecinema.github.io/irishcinemaproject/item.html?id=c031
133	Town Hall Picture House, Galway		https://homernetwork.github.io/vocabulary/venues/Multipurpose_venue	Multipurpose venue	1912		Galway	Galway		Courthouse Square	53.2761936049259	-9.05397850962514		https://primitivecinema.github.io/irishcinemaproject/item.html?id=c035
134	St Columb's Hall		https://homernetwork.github.io/vocabulary/venues/Multipurpose_venue	Multipurpose venue	1913		Derry	Derry		Orchard Street	54.9955598353629	-7.31876684011686		https://primitivecinema.github.io/irishcinemaproject/item.html?id=c053
135	Foresters' Hall, Carrickmacross		https://homernetwork.github.io/vocabulary/venues/Multipurpose_venue	Multipurpose venue	1913		Carrickmacross	Monaghan						https://primitivecinema.github.io/irishcinemaproject/item.html?id=c107
136	Orange Hall, Newry		https://homernetwork.github.io/vocabulary/venues/Multipurpose_venue	Multipurpose venue	1913		Newry	Down		Downshire Road	54.181118	-6.334012		https://primitivecinema.github.io/irishcinemaproject/item.html?id=c110
137	Hale's Tours, Dublin		https://homernetwork.github.io/vocabulary/venues/Cinema	Cinema	1907		Dublin	Dublin		South Anne Street				https://primitivecinema.github.io/irishcinemaproject/item.html?id=c111
138	Picture Palace, Ballymena		https://homernetwork.github.io/vocabulary/venues/Cinema	Cinema	1912		Ballymena	Antrim		Mill Street	54.8642152475319	-6.2761989250785		https://primitivecinema.github.io/irishcinemaproject/item.html?id=c112
139	Bijou Palace, Derry		https://homernetwork.github.io/vocabulary/venues/Cinema	Cinema	1909		Derry	Derry		Carlisle Road				https://primitivecinema.github.io/irishcinemaproject/item.html?id=c117
140	Electric, Oldcastle		https://homernetwork.github.io/vocabulary/venues/Cinema	Cinema	1914		Oldcastle	Meath		Lenox (later Oliver Plunkett) Street	53.7689063635972	-7.16227163567986		https://primitivecinema.github.io/irishcinemaproject/item.html?id=c119
141	Opera House, Derry		https://homernetwork.github.io/vocabulary/venues/Multipurpose_venue	Multipurpose venue	1913		Derry	Derry		Carlisle Road	54.9931574921931	-7.31939579832066		https://primitivecinema.github.io/irishcinemaproject/item.html?id=c132
142	Cinema, Skerries		https://homernetwork.github.io/vocabulary/venues/Cinema	Cinema	1912		Skerries	Dublin			53.577503	-6.1046		https://primitivecinema.github.io/irishcinemaproject/item.html?id=c140
143	Rialto, Derry		https://homernetwork.github.io/vocabulary/venues/Cinema	Cinema	1918		Derry	Derry		Market Street	54.995202	-7.319824		https://primitivecinema.github.io/irishcinemaproject/item.html?id=c167
144	Cinema, Derry	City of Derry Picture House	https://homernetwork.github.io/vocabulary/venues/Cinema	Cinema	1912		Derry	Derry		Hawkins Street	54.993845	-7.321136		https://primitivecinema.github.io/irishcinemaproject/item.html?id=c178
145	Electric		https://homernetwork.github.io/vocabulary/venues/Cinema	Cinema	1914		Drogheda	Louth		Fair Street				https://primitivecinema.github.io/irishcinemaproject/item.html?id=c182
146	Beach	Imperial Hotel	https://homernetwork.github.io/vocabulary/venues/Cinema	Cinema	1912		Queenstown	Cork		West Beach				https://primitivecinema.github.io/irishcinemaproject/item.html?id=c195
147	Curragh Picture House		https://homernetwork.github.io/vocabulary/venues/Cinema	Cinema	1913		Curragh	Kildare		Curragh Camp	53.1460362691206	-6.83247900024385		https://primitivecinema.github.io/irishcinemaproject/item.html?id=c200
148	Coleraine Picture Palace		https://homernetwork.github.io/vocabulary/venues/Cinema	Cinema	1899		Coleraine	Derry		35 New Row (Railway Road?)	55.132931	-6.665343		https://primitivecinema.github.io/irishcinemaproject/item.html?id=c259
149	Melbourne Electric Theatre		https://homernetwork.github.io/vocabulary/venues/Cinema	Cinema	1912	1914	Belfast	Antrim		Melbourne Street				https://primitivecinema.github.io/irishcinemaproject/item.html?id=c185
150	Star Picture Palace		https://homernetwork.github.io/vocabulary/venues/Theatre	Theatre	1908	1909	Belfast	Antrim		17 Church Street				https://primitivecinema.github.io/irishcinemaproject/item.html?id=c104
151	Queen's Picture House		https://homernetwork.github.io/vocabulary/venues/Cinema	Cinema	1915		Belfast	Antrim		250-56 York Street	54.6133160039221	-5.92424242519331		https://primitivecinema.github.io/irishcinemaproject/item.html?id=c174
152	Willowfield Picture House		https://homernetwork.github.io/vocabulary/venues/Cinema	Cinema	1915		Belfast	Antrim		209-215 Woodstock Road	54.592173	-5.904105		https://primitivecinema.github.io/irishcinemaproject/item.html?id=c187
153	Midland Picture House		https://homernetwork.github.io/vocabulary/venues/Cinema	Cinema	1916		Belfast	Antrim		Canning Street	54.611724	-5.924627		https://primitivecinema.github.io/irishcinemaproject/item.html?id=c322
154	Duncairn Picture Palace		https://homernetwork.github.io/vocabulary/venues/Cinema	Cinema	1916		Belfast	Antrim		12 Duncairn Gardens	54.6113858953133	-5.92761364542015		https://primitivecinema.github.io/irishcinemaproject/item.html?id=c323
155	New York Picture House		https://homernetwork.github.io/vocabulary/venues/Cinema	Cinema	1916	1922	Belfast	Antrim		68 York Street				https://primitivecinema.github.io/irishcinemaproject/item.html?id=c030
156	Gaiety Theatre		https://homernetwork.github.io/vocabulary/venues/Cinema	Cinema	1916		Belfast	Antrim		157-61 North Street				https://primitivecinema.github.io/irishcinemaproject/item.html?id=c098
157	Lyceum Picture House		https://homernetwork.github.io/vocabulary/venues/Cinema	Cinema	1916		Belfast	Antrim		Antrim Road (corner New Lodge Road)				https://primitivecinema.github.io/irishcinemaproject/item.html?id=c115
158	Royal Cinema		https://homernetwork.github.io/vocabulary/venues/Cinema	Cinema	1916		Belfast	Antrim		Arthur Square (corner Castle Lane)				https://primitivecinema.github.io/irishcinemaproject/item.html?id=c143
159	Popular Picture House		https://homernetwork.github.io/vocabulary/venues/Cinema	Cinema	1917		Belfast	Antrim		Newtownards Road				https://primitivecinema.github.io/irishcinemaproject/item.html?id=c144
160	Tivoli		https://homernetwork.github.io/vocabulary/venues/Cinema	Cinema	1918		Belfast	Antrim		Christian Place (Albert Street)	54.5981909014158	-5.94510115302685		https://primitivecinema.github.io/irishcinemaproject/item.html?id=c166
161	Ligoniel	Henhouse	https://homernetwork.github.io/vocabulary/venues/Cinema	Cinema	1918		Belfast	Antrim		Ligoniel Road				https://primitivecinema.github.io/irishcinemaproject/item.html?id=c179
162	Sandro		https://homernetwork.github.io/vocabulary/venues/Cinema	Cinema	1919		Belfast	Antrim		71-3 Sandy Row				https://primitivecinema.github.io/irishcinemaproject/item.html?id=c253
163	Diamond Picture House		https://homernetwork.github.io/vocabulary/venues/Cinema	Cinema	1920		Belfast	Antrim		35 Falls Road				https://primitivecinema.github.io/irishcinemaproject/item.html?id=c197
164	World's Fair Waxworks		https://homernetwork.github.io/vocabulary/venues/Multipurpose_venue	Multipurpose venue	#NUM!		Dublin	Dublin		30 Henry Street				https://primitivecinema.github.io/irishcinemaproject/item.html?id=c310
165	Picture House, Dungannon	Foresters' Hall	https://homernetwork.github.io/vocabulary/venues/Cinema	Cinema	1914		Dungannon	Tyrone		Ann Street				https://primitivecinema.github.io/irishcinemaproject/item.html?id=c046
166	Victoria Cinema		https://homernetwork.github.io/vocabulary/venues/Cinema	Cinema	1915	1926	Galway	Galway		Victoria Place	53.2729440492323	-9.04882786431634		https://primitivecinema.github.io/irishcinemaproject/item.html?id=c049
167	Theatre Royal, Limerick		https://homernetwork.github.io/vocabulary/venues/Theatre	Theatre	1914		Limerick	Limerick		Henry Street	52.660985	-8.631282		https://primitivecinema.github.io/irishcinemaproject/item.html?id=c050
169	Picture House, Warrenpoint		https://homernetwork.github.io/vocabulary/venues/Cinema	Cinema	1912		Warrenpoint	Down						https://primitivecinema.github.io/irishcinemaproject/item.html?id=c153
170	Assembly Rooms, Bray		https://homernetwork.github.io/vocabulary/venues/Multipurpose_venue	Multipurpose venue	1912		Bray	Wicklow		Quinsboro Road				https://primitivecinema.github.io/irishcinemaproject/item.html?id=c146
171	Shannon Cinema		https://homernetwork.github.io/vocabulary/venues/Cinema	Cinema	1916		Limerick	Limerick		Georges Quay				https://primitivecinema.github.io/irishcinemaproject/item.html?id=c209
172	Tivoli Picture House, Limerick		https://homernetwork.github.io/vocabulary/venues/Cinema	Cinema	1916		Limerick	Limerick		Assembly Mall				https://primitivecinema.github.io/irishcinemaproject/item.html?id=c201
173	Coliseum, Limerick		https://homernetwork.github.io/vocabulary/venues/Multipurpose_venue	Multipurpose venue	1917		Limerick	Limerick		69 O'Connell Street				https://primitivecinema.github.io/irishcinemaproject/item.html?id=c210
174	Broad Street Cinema		https://homernetwork.github.io/vocabulary/venues/Cinema	Cinema	1914		Waterford	Waterford		Broad Street				https://primitivecinema.github.io/irishcinemaproject/item.html?id=c155
175	Coliseum, Waterford	Rink Picture Palace	https://homernetwork.github.io/vocabulary/venues/Cinema	Cinema	1915		Waterford	Waterford		Adelphi Quay				https://primitivecinema.github.io/irishcinemaproject/item.html?id=c236
176	Theatre Royal, Waterford		https://homernetwork.github.io/vocabulary/venues/Multipurpose_venue	Multipurpose venue	1913		Waterford	Waterford		The Mall				https://primitivecinema.github.io/irishcinemaproject/item.html?id=c171
177	Town Hall, Dungarvan		https://homernetwork.github.io/vocabulary/venues/Multipurpose_venue	Multipurpose venue	1911		Dungarvan	Waterford		St Augustine Street	52.088688	-7.619429		https://primitivecinema.github.io/irishcinemaproject/item.html?id=c172
178	Cinema Palace, Wexford		https://homernetwork.github.io/vocabulary/venues/Cinema	Cinema	1914		Wexford	Wexford		Harpurs Lane (also Cinema Lane)	52.3371869122219	-6.45971619426661		https://primitivecinema.github.io/irishcinemaproject/item.html?id=c113
180	Maryborough Cinema	Electric Cinema Theatre	https://homernetwork.github.io/vocabulary/venues/Cinema	Cinema	1914		Maryborough/Portlaoise	Queen's County/Laois		New Road				https://primitivecinema.github.io/irishcinemaproject/item.html?id=c239
181	Electric Cinema, Mountmellick		https://homernetwork.github.io/vocabulary/venues/Cinema	Cinema	1899		Mountmellick	Queen's County						https://primitivecinema.github.io/irishcinemaproject/item.html?id=c255
182	Electric Picture Palace, Cavan	Cavan Electric Pictures, Town Hall	https://homernetwork.github.io/vocabulary/venues/Multipurpose_venue	Multipurpose venue	1912		Cavan	Cavan		Town Hall Street	53.991088495324	-7.36219905674889		https://primitivecinema.github.io/irishcinemaproject/item.html?id=c223
183	Boyne Cinema		https://homernetwork.github.io/vocabulary/venues/Cinema	Cinema	1919		Drogheda	Louth		Fair Street	53.716483220695	-6.35565036451639		https://primitivecinema.github.io/irishcinemaproject/item.html?id=c173
184	Picture Palace, Randalstown		https://homernetwork.github.io/vocabulary/venues/Cinema	Cinema	1915		Randalstown	Antrim		New Street				https://primitivecinema.github.io/irishcinemaproject/item.html?id=c135
185	Kinemac		https://homernetwork.github.io/vocabulary/venues/Cinema	Cinema	1914	1917	Skibbereen	Cork		Ilen Street				https://primitivecinema.github.io/irishcinemaproject/item.html?id=c152
186	Bandon Cinema Hall		https://homernetwork.github.io/vocabulary/venues/Cinema	Cinema	1914		Bandon	Cork						https://primitivecinema.github.io/irishcinemaproject/item.html?id=c241
187	Bray Cinema	Coliseum, Bray	https://homernetwork.github.io/vocabulary/venues/Cinema	Cinema	1914		Bray	Wicklow		Florence Road				https://primitivecinema.github.io/irishcinemaproject/item.html?id=c270
188	Strand Cinema		https://homernetwork.github.io/vocabulary/venues/Cinema	Cinema	1919		Passage West	Cork		Penny's Quay	51.87063	-8.334668		https://primitivecinema.github.io/irishcinemaproject/item.html?id=c246
189	Coliseum, Kinsale		https://homernetwork.github.io/vocabulary/venues/Cinema	Cinema	1915		Kinsale	Cork		Higher Street	51.7038443834492	-8.52205314737547		https://primitivecinema.github.io/irishcinemaproject/item.html?id=c097
190	Stafford's Picture Theatre		https://homernetwork.github.io/vocabulary/venues/Cinema	Cinema	1913		Longford	Longford		Killashee Street				https://primitivecinema.github.io/irishcinemaproject/item.html?id=c188
191	Dann's Pictures	Picture Palace, Market Square	https://homernetwork.github.io/vocabulary/venues/Cinema	Cinema	1899		Longford	Longford		Market Square				https://primitivecinema.github.io/irishcinemaproject/item.html?id=c199
193	Ballina Picture Palace	Town Hall, Ballina	https://homernetwork.github.io/vocabulary/venues/Cinema	Cinema	1914		Ballina	Mayo		Arthur Street	54.114365	-9.159435		https://primitivecinema.github.io/irishcinemaproject/item.html?id=c215
195	Picture Palace, Dungarvan		https://homernetwork.github.io/vocabulary/venues/Cinema	Cinema	1914		Dungarvan	Waterford		Davitt's Quay	52.091564	-7.620585		https://primitivecinema.github.io/irishcinemaproject/item.html?id=c229
196	Belturbet Cinema		https://homernetwork.github.io/vocabulary/venues/Cinema	Cinema	1913		Belturbet	Cavan		Town Hall, the Diamond, Church Street				https://primitivecinema.github.io/irishcinemaproject/item.html?id=c213
197	Mallow Picture House		https://homernetwork.github.io/vocabulary/venues/Cinema	Cinema	1899		Mallow	Cork						https://primitivecinema.github.io/irishcinemaproject/item.html?id=c227
198	Abbey Picture House		https://homernetwork.github.io/vocabulary/venues/Cinema	Cinema	1899		Enniscorthy	Wexford						https://primitivecinema.github.io/irishcinemaproject/item.html?id=c034
199	Cinema Theatre, Enniscorthy		https://homernetwork.github.io/vocabulary/venues/Cinema	Cinema	1915		Enniscorthy	Wexford		New Street				https://primitivecinema.github.io/irishcinemaproject/item.html?id=c196
200	Kells Picture House	Kells Picture Theatre, Kells Picture Palace	https://homernetwork.github.io/vocabulary/venues/Cinema	Cinema	1914		Kells	Meath		Market Yard	53.726555	-6.878753		https://primitivecinema.github.io/irishcinemaproject/item.html?id=c207
201	Strabane Pallidrome Picture Palace	Picture Palace, Strabane	https://homernetwork.github.io/vocabulary/venues/Cinema	Cinema	1913		Strabane	Tyrone		Railway Road				https://primitivecinema.github.io/irishcinemaproject/item.html?id=c208
202	Electric Theatre, Larne		https://homernetwork.github.io/vocabulary/venues/Cinema	Cinema	1911		Larne	Antrim		Main Street				https://primitivecinema.github.io/irishcinemaproject/item.html?id=c211
203	Corinthian Cinema		https://homernetwork.github.io/vocabulary/venues/Cinema	Cinema	1921		Dublin	Dublin		4-6 Eden Quay	53.347934	-6.25843		https://primitivecinema.github.io/irishcinemaproject/item.html?id=c216
204	Grand Central Cinema		https://homernetwork.github.io/vocabulary/venues/Cinema	Cinema	1921		Dublin	Dublin		6-7 Lr Sackville/O'Connell Street	53.348097	-6.259104		https://primitivecinema.github.io/irishcinemaproject/item.html?id=c217
205	Metropole Cinema		https://homernetwork.github.io/vocabulary/venues/Cinema	Cinema	1922		Dublin	Dublin		35-39 Lr Sackville/O'Connell Street	53.348829	-6.260394		https://primitivecinema.github.io/irishcinemaproject/item.html?id=c218
206	Palace Cinema Theatre		https://homernetwork.github.io/vocabulary/venues/Cinema	Cinema	1899		Fermoy	Cork		West Quay				https://primitivecinema.github.io/irishcinemaproject/item.html?id=c219
207	Cinema, New Ross		https://homernetwork.github.io/vocabulary/venues/Cinema	Cinema	1899		New Ross	Wexford						https://primitivecinema.github.io/irishcinemaproject/item.html?id=c249
208	La Scala Theatre		https://homernetwork.github.io/vocabulary/venues/Cinema	Cinema	1920		Dublin	Dublin		4-8 Princes Street North	53.3488310707727	-6.26115917374955		https://primitivecinema.github.io/irishcinemaproject/item.html?id=c236
209	Cinema, the Mall		https://homernetwork.github.io/vocabulary/venues/Cinema	Cinema	1899		Tuam	Galway		Stable Lane, Corralea West	53.5132780470491	-8.85330235437833		https://primitivecinema.github.io/irishcinemaproject/item.html?id=c257
210	Westport Cinema Theatre		https://homernetwork.github.io/vocabulary/venues/Cinema	Cinema	1899		Westport	Mayo						https://primitivecinema.github.io/irishcinemaproject/item.html?id=c269
211	Cinema Palace, Cahir		https://homernetwork.github.io/vocabulary/venues/Cinema	Cinema	1919		Cahir	Tipperary		The Square	52.3747371165971	-7.92392860878808		https://primitivecinema.github.io/irishcinemaproject/item.html?id=c316
212	Shannon Cinema	Father Mathew Hall	https://homernetwork.github.io/vocabulary/venues/Cinema	Cinema	1899		Athlone	Westmeath			53.42379	-7.942842		https://primitivecinema.github.io/irishcinemaproject/item.html?id=c163
213	Longworth Hall	Electric Pictures	https://homernetwork.github.io/vocabulary/venues/Cinema	Cinema	1899		Athlone	Westmeath		Northgate Street	53.424529	-7.940617		https://primitivecinema.github.io/irishcinemaproject/item.html?id=c301
214	Electric Cinema, Tullamore		https://homernetwork.github.io/vocabulary/venues/Cinema	Cinema	1899		Tullamore	King's County			53.2750329061731	-7.49078889813093		https://primitivecinema.github.io/irishcinemaproject/item.html?id=c328
215	Star Picture House		https://homernetwork.github.io/vocabulary/venues/Cinema	Cinema	1919	1923	Castlebar	Mayo		Main Street	53.856449	-9.298476		https://primitivecinema.github.io/irishcinemaproject/item.html?id=c329
216	Ellison Cinema	Bourke's Pictures	https://homernetwork.github.io/vocabulary/venues/Cinema	Cinema	1919		Castlebar	Mayo		Ellison Street	53.855653	-9.299275		https://primitivecinema.github.io/irishcinemaproject/item.html?id=c324
217	Cinema Hall		https://homernetwork.github.io/vocabulary/venues/Cinema	Cinema	1899		Castlepollard	Westmeath						https://primitivecinema.github.io/irishcinemaproject/item.html?id=c203
218	Cinema, Nobber Hall		https://homernetwork.github.io/vocabulary/venues/Cinema	Cinema	1919		Nobber	Meath						https://primitivecinema.github.io/irishcinemaproject/item.html?id=c204
220	Lee Cinema		https://homernetwork.github.io/vocabulary/venues/Cinema	Cinema	1920		Cork	Cork		1-2 Winthrop Street	51.8988175185083	-8.4708056414547		https://primitivecinema.github.io/irishcinemaproject/item.html?id=c232
221	Excelsior Cinema		https://homernetwork.github.io/vocabulary/venues/Cinema	Cinema	1920		Wicklow	Wicklow		Fitzwilliam Square	52.9808883772687	-6.04330691845012		https://primitivecinema.github.io/irishcinemaproject/item.html?id=c234
222	Enniskillen Picture Theatre		https://homernetwork.github.io/vocabulary/venues/Cinema	Cinema	1913		Enniskillen	Fermanagh			54.344752	-7.63855		https://primitivecinema.github.io/irishcinemaproject/item.html?id=c237
223	Park View Cinema		https://homernetwork.github.io/vocabulary/venues/Cinema	Cinema	1917		Carrick-on-Suir	Tipperary						https://primitivecinema.github.io/irishcinemaproject/item.html?id=c266
224	Palace Cinema		https://homernetwork.github.io/vocabulary/venues/Cinema	Cinema	1920		Dublin	Dublin		41 Gt Brunswick Street	53.3443950305771	-6.24997840667313		https://primitivecinema.github.io/irishcinemaproject/item.html?id=c306
225	Clonmel Cinema Theatre	Electric Picture Palace; Picturedrome	https://homernetwork.github.io/vocabulary/venues/Cinema	Cinema	1912	1921	Clonmel	Tipperary		Upper Gladstone Street	52.3554821019315	-7.70276498363786		https://primitivecinema.github.io/irishcinemaproject/item.html?id=c193
226	Provincial Electric Cinema		https://homernetwork.github.io/vocabulary/venues/Cinema	Cinema	1919		Roscommon	Roscommon		Harrison Hall	53.6312394099151	-8.19059361688071		https://primitivecinema.github.io/irishcinemaproject/item.html?id=c254
227	Fermoy Cinema Theatre	Kinema	https://homernetwork.github.io/vocabulary/venues/Cinema	Cinema	1913		Fermoy	Cork		Francis Stret				https://primitivecinema.github.io/irishcinemaproject/item.html?id=c262
228	Cinema, Cashel		https://homernetwork.github.io/vocabulary/venues/Cinema	Cinema	1919		Cashel	Tipperary						https://primitivecinema.github.io/irishcinemaproject/item.html?id=c264
229	Garryowen Cinema		https://homernetwork.github.io/vocabulary/venues/Cinema	Cinema	1920		Limerick	Limerick		Broad Street	52.6656816474555	-8.61991035707981		https://primitivecinema.github.io/irishcinemaproject/item.html?id=c297
230	Washington Cinema		https://homernetwork.github.io/vocabulary/venues/Cinema	Cinema	1920		Cork	Cork		11-12 Great George's Street	51.8976899312945	-8.47660298184902		https://primitivecinema.github.io/irishcinemaproject/item.html?id=c309
231	Blackpool Cinema		https://homernetwork.github.io/vocabulary/venues/Cinema	Cinema	1920		Cork	Cork		70-74 Watercourse Road	51.909342416648	-8.47373306415089		https://primitivecinema.github.io/irishcinemaproject/item.html?id=c244
232	Bellevue Cinema		https://homernetwork.github.io/vocabulary/venues/Cinema	Cinema	1920		Cork	Cork		Military Road	51.9067654382297	-8.46200541889921		https://primitivecinema.github.io/irishcinemaproject/item.html?id=c252
233	Kinema		https://homernetwork.github.io/vocabulary/venues/Cinema	Cinema	1919		Naas	Kildare						https://primitivecinema.github.io/irishcinemaproject/item.html?id=c258
234	Picturedrome		https://homernetwork.github.io/vocabulary/venues/Cinema	Cinema	1917	1921	Tipperary	Tipperary		Jame's Street				https://primitivecinema.github.io/irishcinemaproject/item.html?id=c268
235	Electric Theatre	Tivoli	https://homernetwork.github.io/vocabulary/venues/Cinema	Cinema	1912		Tipperary	Tipperary		Henry (now O'Brien) Street	52.472898	-8.16484		https://primitivecinema.github.io/irishcinemaproject/item.html?id=c272
237	Picture House, Dingle		https://homernetwork.github.io/vocabulary/venues/Cinema	Cinema	1920		Dingle	Kerry						https://primitivecinema.github.io/irishcinemaproject/item.html?id=c292
238					1899		Killarney	Kerry						https://primitivecinema.github.io/irishcinemaproject/item.html?id=c300
239	Diamond Picture Palace	Town Hall	https://homernetwork.github.io/vocabulary/venues/Cinema	Cinema	1913		Monaghan	Monaghan			54.2487584990258	-6.96902066991133		https://primitivecinema.github.io/irishcinemaproject/item.html?id=c290
240	Bessbrook Cinema		https://homernetwork.github.io/vocabulary/venues/Cinema	Cinema	1913		Bessbrook	Armagh						https://primitivecinema.github.io/irishcinemaproject/item.html?id=c256
241	Picture House, Castleblaney		https://homernetwork.github.io/vocabulary/venues/Cinema	Cinema	1913		Castleblaney	Monaghan						https://primitivecinema.github.io/irishcinemaproject/item.html?id=c273
242	Clones Electric Theatre	St. Joseph's Temperance Hall	https://homernetwork.github.io/vocabulary/venues/Multipurpose_venue	Multipurpose venue	1916		Clones	Monaghan			54.182670668061	-7.23439724196441		https://primitivecinema.github.io/irishcinemaproject/item.html?id=c311
243	Picture Palace, Newbridge	Sheridan's Hall	https://homernetwork.github.io/vocabulary/venues/Multipurpose_venue	Multipurpose venue	1912		Newbridge	Kildare						https://primitivecinema.github.io/irishcinemaproject/item.html?id=c312
244	National Theatre		https://homernetwork.github.io/vocabulary/venues/Cinema	Cinema	1913		Thurles	Tipperary		Friar Street	52.678381	-7.819127		https://primitivecinema.github.io/irishcinemaproject/item.html?id=c330
245	Cinema Hall, Clogheen		https://homernetwork.github.io/vocabulary/venues/Cinema	Cinema	1918		Clogheen	Tipperary						https://primitivecinema.github.io/irishcinemaproject/item.html?id=c265
246	Pavilion		https://homernetwork.github.io/vocabulary/venues/Cinema	Cinema	1921		Cork	Cork		80-82 Patrick Street	51.8983986513579	-8.47379406722411		https://primitivecinema.github.io/irishcinemaproject/item.html?id=c298
247	Electric Palace		https://homernetwork.github.io/vocabulary/venues/Cinema	Cinema	1899		Kildare	Kildare						https://primitivecinema.github.io/irishcinemaproject/item.html?id=c307
248	Oisin Theatre		https://homernetwork.github.io/vocabulary/venues/Theatre	Theatre	1921		Clonmel	Tipperary		22 O'Connell Street	52.3524836706798	-7.70396234094009		https://primitivecinema.github.io/irishcinemaproject/item.html?id=c291
249	Southern Star Cinema		https://homernetwork.github.io/vocabulary/venues/Cinema	Cinema	1920		Midleton	Cork		Cork Bridge	51.9165304638298	-8.17580977705801		https://primitivecinema.github.io/irishcinemaproject/item.html?id=c248
250	Strand Palace		https://homernetwork.github.io/vocabulary/venues/Cinema	Cinema	1920		Youghal	Cork		Upper Strand	51.9405951135527	-7.84478553863092		https://primitivecinema.github.io/irishcinemaproject/item.html?id=c245
251	Cinema		https://homernetwork.github.io/vocabulary/venues/Cinema	Cinema	1921		Lismore	Waterford		South Mall	52.1381298630135	-7.92965523653732		
252	Oriel Cinema		https://homernetwork.github.io/vocabulary/venues/Cinema	Cinema	1919		Dundalk	Louth		Market Street	54.005186	-6.401164		
253	Greystones Picture Palace		https://homernetwork.github.io/vocabulary/venues/Cinema	Cinema	1917		Greystones	Wicklow		Sidmonton	53.149023984913	-6.06420515032199		
254	Cinema		https://homernetwork.github.io/vocabulary/venues/Cinema	Cinema	1899		Monaghan	Monaghan						
255	Moynan's  Picture Palace		https://homernetwork.github.io/vocabulary/venues/Cinema	Cinema	1918		Templemore	Tipperary		Main Street	52.797345	-7.832509		
256	Pictures, Town Hall		https://homernetwork.github.io/vocabulary/venues/Multipurpose_venue	Multipurpose venue	1899		Ennis	Clare			52.8425143631525	-8.98316110528182		
257	Strand Cinema		https://homernetwork.github.io/vocabulary/venues/Cinema	Cinema	1935		Derry	Derry		Strand Road				
258	Midland Picture House	Midland Cinema	https://homernetwork.github.io/vocabulary/venues/Cinema	Cinema	1923		Derry	Derry		Bond's Hill, Waterside	54.993083	-7.311815		
259	Savoy		https://homernetwork.github.io/vocabulary/venues/Cinema	Cinema	1933		Newry	Down		25 Merchants Quay	54.176758	-6.339798		
260	Strand Cinema		https://homernetwork.github.io/vocabulary/venues/Cinema	Cinema	1899		Tramore	Waterford						
261	West End Cinema	Ashfield Hall	https://homernetwork.github.io/vocabulary/venues/Cinema	Cinema	1899	1927	Derry	Derry		Tyrconnell Street				
262	City Cinema		https://homernetwork.github.io/vocabulary/venues/Cinema	Cinema	1932		Derry	Derry		14-16 William Street	54.9976559562789	-7.32231790001425		
263	Commodore Cinema		https://homernetwork.github.io/vocabulary/venues/Cinema	Cinema	1934		Strabane	Tyrone		69a Main Street				
264	Picture Palace, Portrush		https://homernetwork.github.io/vocabulary/venues/Multipurpose_venue	Multipurpose venue	1912		Portrush	Derry		Kerr Street	55.2047154249728	-6.65310004406515		
265	Kilmallock Picture House		https://homernetwork.github.io/vocabulary/venues/Cinema	Cinema	1899		Kilmallock	Limerick						
266	Ormond Picture Palace		https://homernetwork.github.io/vocabulary/venues/Cinema	Cinema	1923		Nenagh	Tipperary		Summerhill	52.8653953759318	-8.19655410665605		
267	Ormond Cinema Company	Town Hall	https://homernetwork.github.io/vocabulary/venues/Multipurpose_venue	Multipurpose venue	1915		Nenagh	Tipperary		Banba Square	52.8649592270184	-8.19948082721943		
268	Rock Hall Cinema		https://homernetwork.github.io/vocabulary/venues/Multipurpose_venue	Multipurpose venue	1922		Ballyshannon	Donegal			54.4995537540129	-8.19292398140764		
269	Theatre Royal, Wexford		https://homernetwork.github.io/vocabulary/venues/Multipurpose_venue	Multipurpose venue	1899		Wexford	Wexford		High Street	52.3379861325399	-6.46223176408019		
270	Grand Central Cinema		https://homernetwork.github.io/vocabulary/venues/Cinema	Cinema	1924		Tullamore	Offaly		Market Square	53.2753067288832	-7.49058759551017		
272	Pavilion Cinema		https://homernetwork.github.io/vocabulary/venues/Cinema	Cinema	1920		Sligo	Sligo		Thomas Street	54.271172	-8.471791		
273	Star Kinema		https://homernetwork.github.io/vocabulary/venues/Cinema	Cinema	1923		Omagh	Tyrone		Sedan Avenue	54.602351	-7.303762		
274	Main Street Picture House and Caf		https://homernetwork.github.io/vocabulary/venues/Multipurpose_venue	Multipurpose venue	1914		Portrush	Derry		Main Street	55.204717	-6.652104		
275	New Cinema				1913		Dungannon	Tyrone						
276	City YMCA		https://homernetwork.github.io/vocabulary/venues/Multipurpose_venue	Multipurpose venue	1899		Belfast	Antrim		Wellington Place	54.596914	-5.932837		
277	Garage Cinema				1922		Castlecomer	Kilkenny			52.803911	-7.210443		
278					1899		Athy	Kildare						
279	Abbey Kinema		https://homernetwork.github.io/vocabulary/venues/Cinema	Cinema	1922	1930	Limerick	Limerick		George's Quay	52.667046	-8.622334		
280	Rinn	Regal	https://homernetwork.github.io/vocabulary/venues/Cinema	Cinema	1925	1934	Dublin	Dublin		23 Fitzwilliam Street, Ringsend	53.342305	-6.227116		
281	Inchicore Cinema		https://homernetwork.github.io/vocabulary/venues/Cinema	Cinema	1921		Dublin	Dublin		29-35 Tyrconnell Road, Inchicore	53.338708	-6.321706		
282	Rossleigh Picture House		https://homernetwork.github.io/vocabulary/venues/Cinema	Cinema	1920		Carrickfergus	Antrim		Irish Quarter South				
283	Arcadia Picture Palace		https://homernetwork.github.io/vocabulary/venues/Cinema	Cinema	1923		Ballina	Mayo		Arran Street	54.113642	-9.155659		
284	Cinema, Listowel		https://homernetwork.github.io/vocabulary/venues/Cinema	Cinema	1899		Listowel	Kerry		Church Street	52.447028	-9.483247		
285	Charles & Mann Cinema		https://homernetwork.github.io/vocabulary/venues/Cinema	Cinema	1918		Listowel	Kerry		Upper Church Street	52.447703	-9.481554		
286	Market Cinema Hall		https://homernetwork.github.io/vocabulary/venues/Cinema	Cinema	1920		Listowel	Kerry		Market Street				
287	Classic Cinema	Gaumont	https://homernetwork.github.io/vocabulary/venues/Cinema	Cinema	1923		Belfast	Antrim		Castle Lane	54.598684	-5.929044		
288	New Theatre and Picture House		https://homernetwork.github.io/vocabulary/venues/Multipurpose_venue	Multipurpose venue	1924		Thurles	Tipperary		Slievenamon Road	52.676975	-7.812336		
289	Star Electric Pictures	Young Men's Society Hall	https://homernetwork.github.io/vocabulary/venues/Multipurpose_venue	Multipurpose venue	1915		Birr	Offaly						
290	Cinema Hall		https://homernetwork.github.io/vocabulary/venues/Multipurpose_venue	Multipurpose venue	1923		Killaloe	Clare						
