id	name	description	additionalTypeId	additionalTypeName	startDate	endDate	addressLocality	addressRegion	postalCode	streetAddress	latitude	longitude	citation	http://cinemacontext.nl/id/sameAs
cc63297d219d6d7	Bellevue	Voortzetting Cinema Pathé Frères	https://homernetwork.github.io/vocabulary/venues/Single_screen_cinema;https://homernetwork.github.io/vocabulary/venues/Cinema;https://homernetwork.github.io/vocabulary/venues/Public_venue	Single screen cinema;Cinema;Public venue	1913-01-01		Paramaribo			Domineestraat	5.82667476492985	-55.1579826169601	Van Oort, T. (2025). Asian Film Exhibition in Suriname (1930s—1970s). In Panel 24: Beyond Hollywood: Resistant Experiences of Cinema-going in the Caribbean [Conference session]. HoMER 2025 Conference: Cinema and Conflict, Galatasaray University, Istanbul, Turkey.	http://cinemacontext.nl/id/B001704
cc63356ec1a701d	Kino Scheurlen		https://homernetwork.github.io/vocabulary/venues/Multipurpose_venue;https://homernetwork.github.io/vocabulary/venues/Public_venue	zaal;Public venue	1912-08-01	1924-12-31	Paramaribo			Keizerstraat	5.82671845373207	-55.1566030900556	Van Oort, T. (2025). Asian Film Exhibition in Suriname (1930s—1970s). In Panel 24: Beyond Hollywood: Resistant Experiences of Cinema-going in the Caribbean [Conference session]. HoMER 2025 Conference: Cinema and Conflict, Galatasaray University, Istanbul, Turkey.	http://cinemacontext.nl/id/B001701
cc63357845b442d	Cinéma Pathé Frères	De Cinéma Pathé Frères was gevestigd in de Loge Concordia. Bij droog weer werden ook buiten voorstellingen gegeven. In mei 1913 verhuisde de exploitatie naar het nieuw gebouwde Bellevue theater aan de Dominéstraat	https://homernetwork.github.io/vocabulary/venues/Single_screen_cinema;https://homernetwork.github.io/vocabulary/venues/Cinema;https://homernetwork.github.io/vocabulary/venues/Public_venue	Single screen cinema;Cinema;Public venue	1912-01-01	1913-05-31	Paramaribo			Gravenstraat 2	5.82739150202044	-55.1523679853491	Van Oort, T. (2025). Asian Film Exhibition in Suriname (1930s—1970s). In Panel 24: Beyond Hollywood: Resistant Experiences of Cinema-going in the Caribbean [Conference session]. HoMER 2025 Conference: Cinema and Conflict, Galatasaray University, Istanbul, Turkey.	http://cinemacontext.nl/id/B001702
cc63357918595b7	Hollandsch-Amerikaansche Bioscoop	De Hollandsch-Amerikaansche bioscoop opereerde in Theater Thalia	https://homernetwork.github.io/vocabulary/venues/Single_screen_cinema;https://homernetwork.github.io/vocabulary/venues/Cinema;https://homernetwork.github.io/vocabulary/venues/Public_venue	Single screen cinema;Cinema;Public venue	1912-11-07		Paramaribo			Wagenwegstraat	5.83081098696097	-55.1598579902848	Van Oort, T. (2025). Asian Film Exhibition in Suriname (1930s—1970s). In Panel 24: Beyond Hollywood: Resistant Experiences of Cinema-going in the Caribbean [Conference session]. HoMER 2025 Conference: Cinema and Conflict, Galatasaray University, Istanbul, Turkey.	http://cinemacontext.nl/id/B001703
cc63357b83efbf9	Cinema Elize	Opgevolgd door nieuwbouw Luxor in 1937. Mogelijk voortzetting van De Kroon na 1929.	https://homernetwork.github.io/vocabulary/venues/Single_screen_cinema;https://homernetwork.github.io/vocabulary/venues/Cinema;https://homernetwork.github.io/vocabulary/venues/Public_venue	Single screen cinema;Cinema;Public venue	1931-01-24	1937-12-31	Paramaribo			Zwartenhovenbrugstraat 70	5.82616411655119	-55.1623773255393	Van Oort, T. (2025). Asian Film Exhibition in Suriname (1930s—1970s). In Panel 24: Beyond Hollywood: Resistant Experiences of Cinema-going in the Caribbean [Conference session]. HoMER 2025 Conference: Cinema and Conflict, Galatasaray University, Istanbul, Turkey.	http://cinemacontext.nl/id/B001705
cc63357e1527947	Kinematograaf	Hier werden in 1898 'Photografie van levende beelden' vertoond op zaterdag- en zondagavonden	https://homernetwork.github.io/vocabulary/venues/Single_screen_cinema;https://homernetwork.github.io/vocabulary/venues/Cinema;https://homernetwork.github.io/vocabulary/venues/Public_venue	Single screen cinema;Cinema;Public venue	1898-01-01		Paramaribo			Hoek Watermolen en Heerenstraat	5.82710885521838	-55.1541620546859	Van Oort, T. (2025). Asian Film Exhibition in Suriname (1930s—1970s). In Panel 24: Beyond Hollywood: Resistant Experiences of Cinema-going in the Caribbean [Conference session]. HoMER 2025 Conference: Cinema and Conflict, Galatasaray University, Istanbul, Turkey.	http://cinemacontext.nl/id/B001744
cc63357fb3996a7	Luxor	Nieuwbouw die het voormalige Cinema Elize verving in 1937.	https://homernetwork.github.io/vocabulary/venues/Single_screen_cinema;https://homernetwork.github.io/vocabulary/venues/Cinema;https://homernetwork.github.io/vocabulary/venues/Public_venue	Single screen cinema;Cinema;Public venue	1937-01-01	2002-12-31	Paramaribo			Zwartenhovenbrugstraat 70	5.82616411655119	-55.1623773255393	Van Oort, T. (2025). Asian Film Exhibition in Suriname (1930s—1970s). In Panel 24: Beyond Hollywood: Resistant Experiences of Cinema-going in the Caribbean [Conference session]. HoMER 2025 Conference: Cinema and Conflict, Galatasaray University, Istanbul, Turkey.	http://cinemacontext.nl/id/B001773
cc633580da3503b	Royal	Royal opereerde in het Thalia theater. Laatste advertentie gevonden in 1950, vermoedelijk ergens in dat jaar gesloten.	https://homernetwork.github.io/vocabulary/venues/Single_screen_cinema;https://homernetwork.github.io/vocabulary/venues/Cinema;https://homernetwork.github.io/vocabulary/venues/Public_venue	Single screen cinema;Cinema;Public venue	1935-02-01	1950-12-31	Paramaribo			Wagenwegstraat	5.83081098696097	-55.1598579902848	Van Oort, T. (2025). Asian Film Exhibition in Suriname (1930s—1970s). In Panel 24: Beyond Hollywood: Resistant Experiences of Cinema-going in the Caribbean [Conference session]. HoMER 2025 Conference: Cinema and Conflict, Galatasaray University, Istanbul, Turkey.	http://cinemacontext.nl/id/B001707
cc6335828f346f1	Sociable Hall	In deze zaal werden vanaf 1898 diverse filmvoorstellingen georganiseerd	https://homernetwork.github.io/vocabulary/venues/Single_screen_cinema;https://homernetwork.github.io/vocabulary/venues/Cinema;https://homernetwork.github.io/vocabulary/venues/Public_venue	Single screen cinema;Cinema;Public venue	1898-01-01		Paramaribo			Gravenstraat			Van Oort, T. (2025). Asian Film Exhibition in Suriname (1930s—1970s). In Panel 24: Beyond Hollywood: Resistant Experiences of Cinema-going in the Caribbean [Conference session]. HoMER 2025 Conference: Cinema and Conflict, Galatasaray University, Istanbul, Turkey.	
cc633f262e00b66	Tower		https://homernetwork.github.io/vocabulary/venues/Single_screen_cinema;https://homernetwork.github.io/vocabulary/venues/Cinema;https://homernetwork.github.io/vocabulary/venues/Public_venue	Single screen cinema;Cinema;Public venue	1948-01-01	1998-12-31	Paramaribo			Heerenstraat	5.82951506956742	-55.1576204460388	Van Oort, T. (2025). Asian Film Exhibition in Suriname (1930s—1970s). In Panel 24: Beyond Hollywood: Resistant Experiences of Cinema-going in the Caribbean [Conference session]. HoMER 2025 Conference: Cinema and Conflict, Galatasaray University, Istanbul, Turkey.	http://cinemacontext.nl/id/B001754
cc634829d4a36fb	Kong Ngie Tong		https://homernetwork.github.io/vocabulary/venues/Single_screen_cinema;https://homernetwork.github.io/vocabulary/venues/Cinema;https://homernetwork.github.io/vocabulary/venues/Public_venue	Single screen cinema;Cinema;Public venue	1933-12-09		Paramaribo			Steenbakkersgracht	5.82441707320224	-55.1618401811729	Van Oort, T. (2025). Asian Film Exhibition in Suriname (1930s—1970s). In Panel 24: Beyond Hollywood: Resistant Experiences of Cinema-going in the Caribbean [Conference session]. HoMER 2025 Conference: Cinema and Conflict, Galatasaray University, Istanbul, Turkey.	
cc635146da507e0	Star		https://homernetwork.github.io/vocabulary/venues/Single_screen_cinema;https://homernetwork.github.io/vocabulary/venues/Cinema;https://homernetwork.github.io/vocabulary/venues/Public_venue	Single screen cinema;Cinema;Public venue	1957-12-12	1999-12-31	Paramaribo			Wagenwegstraat 79-81	5.82974400459015	-55.1600463014844	Van Oort, T. (2025). Asian Film Exhibition in Suriname (1930s—1970s). In Panel 24: Beyond Hollywood: Resistant Experiences of Cinema-going in the Caribbean [Conference session]. HoMER 2025 Conference: Cinema and Conflict, Galatasaray University, Istanbul, Turkey.	http://cinemacontext.nl/id/B001749
cc6351499140bdd	Jasodra	"Ook wel geschreven als ""Jassodra"". Genoemd naar Mevr. Jasodra Manichand, echtgenote van de eigenaar J.R. Manichand; Cinemascope"	https://homernetwork.github.io/vocabulary/venues/Single_screen_cinema;https://homernetwork.github.io/vocabulary/venues/Cinema;https://homernetwork.github.io/vocabulary/venues/Public_venue	Single screen cinema;Cinema;Public venue	1958-04-10		Paramaribo			Kleine Saramaccastraat	5.81976860801067	-55.165084907054	Van Oort, T. (2025). Asian Film Exhibition in Suriname (1930s—1970s). In Panel 24: Beyond Hollywood: Resistant Experiences of Cinema-going in the Caribbean [Conference session]. HoMER 2025 Conference: Cinema and Conflict, Galatasaray University, Istanbul, Turkey.	http://cinemacontext.nl/id/B001709
cc63514ba0c0d9f	Empire		https://homernetwork.github.io/vocabulary/venues/Multipurpose_venue;https://homernetwork.github.io/vocabulary/venues/Public_venue	Verenigingsgebouw;Public venue	1964-01-01		Paramaribo			Rust en Vredestraat	5.83049078070508	-55.1646219088197	Van Oort, T. (2025). Asian Film Exhibition in Suriname (1930s—1970s). In Panel 24: Beyond Hollywood: Resistant Experiences of Cinema-going in the Caribbean [Conference session]. HoMER 2025 Conference: Cinema and Conflict, Galatasaray University, Istanbul, Turkey.	http://cinemacontext.nl/id/B001715
cc635153684afa1	City	70mm projector; vermoedelijk geopend sept. 1972	https://homernetwork.github.io/vocabulary/venues/Single_screen_cinema;https://homernetwork.github.io/vocabulary/venues/Cinema;https://homernetwork.github.io/vocabulary/venues/Public_venue	Single screen cinema;Cinema;Public venue	1972-01-01		Paramaribo			Kwattaweg RRMM+R2G	5.83466949158561	-55.167273240786	Van Oort, T. (2025). Asian Film Exhibition in Suriname (1930s—1970s). In Panel 24: Beyond Hollywood: Resistant Experiences of Cinema-going in the Caribbean [Conference session]. HoMER 2025 Conference: Cinema and Conflict, Galatasaray University, Istanbul, Turkey.	http://cinemacontext.nl/id/B001721
cc6351584286f2b	Lincoln	"Specialiseerde in Indonesische films.
Gekocht voor f310.000 in 1975."	https://homernetwork.github.io/vocabulary/venues/Single_screen_cinema;https://homernetwork.github.io/vocabulary/venues/Cinema;https://homernetwork.github.io/vocabulary/venues/Public_venue	Single screen cinema;Cinema;Public venue	1975-06-13		Paramaribo			Wicherstraat 46	5.8342423115822	-55.1463383078867	Van Oort, T. (2025). Asian Film Exhibition in Suriname (1930s—1970s). In Panel 24: Beyond Hollywood: Resistant Experiences of Cinema-going in the Caribbean [Conference session]. HoMER 2025 Conference: Cinema and Conflict, Galatasaray University, Istanbul, Turkey.	http://cinemacontext.nl/id/B001743
cc635159bbb21ad	(New) Royal		https://homernetwork.github.io/vocabulary/venues/Single_screen_cinema;https://homernetwork.github.io/vocabulary/venues/Cinema;https://homernetwork.github.io/vocabulary/venues/Public_venue	Single screen cinema;Cinema;Public venue	1962-12-07	1975-12-31	Paramaribo			Wicherstraat 46	5.8342423115822	-55.1463383078867	Van Oort, T. (2025). Asian Film Exhibition in Suriname (1930s—1970s). In Panel 24: Beyond Hollywood: Resistant Experiences of Cinema-going in the Caribbean [Conference session]. HoMER 2025 Conference: Cinema and Conflict, Galatasaray University, Istanbul, Turkey.	http://cinemacontext.nl/id/B001719
cc635179335f1cf	Liberty	"Vrije Stem schrijft op 18-2-1978: 'De naam ""Liberty"" is door de heer Tewari bewust gekozen om de vrijheid te symboliseren van het Surinaamse volk. Hij zegt middels educatieve en culturele films zijn bijdrage te zullen leveren aan de vorming van de Surinaamse burgers.'"	https://homernetwork.github.io/vocabulary/venues/Single_screen_cinema;https://homernetwork.github.io/vocabulary/venues/Cinema	Cinema;military cinema	1978-02-17		Paramaribo			Koningstraat 58-60	5.81658504342113	-55.1748971798353	Van Oort, T. (2025). Asian Film Exhibition in Suriname (1930s—1970s). In Panel 24: Beyond Hollywood: Resistant Experiences of Cinema-going in the Caribbean [Conference session]. HoMER 2025 Conference: Cinema and Conflict, Galatasaray University, Istanbul, Turkey.	http://cinemacontext.nl/id/B001767
cc63517cb822645	De Paarl		https://homernetwork.github.io/vocabulary/venues/Single_screen_cinema;https://homernetwork.github.io/vocabulary/venues/Cinema;https://homernetwork.github.io/vocabulary/venues/Public_venue	Single screen cinema;Cinema;Public venue	1958-05-24		Paramaribo			Wanicastraat [ingang Zorg en Hoop - Hermitage]	5.81483167775224	-55.1774224460943	Van Oort, T. (2025). Asian Film Exhibition in Suriname (1930s—1970s). In Panel 24: Beyond Hollywood: Resistant Experiences of Cinema-going in the Caribbean [Conference session]. HoMER 2025 Conference: Cinema and Conflict, Galatasaray University, Istanbul, Turkey.	http://cinemacontext.nl/id/B001720
cc6358f516a4ce6	TBL Cinemas		https://homernetwork.github.io/vocabulary/venues/Single_screen_cinema;https://homernetwork.github.io/vocabulary/venues/Cinema;https://homernetwork.github.io/vocabulary/venues/Public_venue	Single screen cinema;Cinema;Public venue	2010-11-01		Paramaribo			Lalla Rookhweg 79	5.81779487951746	-55.205516012586	Van Oort, T. (2025). Asian Film Exhibition in Suriname (1930s—1970s). In Panel 24: Beyond Hollywood: Resistant Experiences of Cinema-going in the Caribbean [Conference session]. HoMER 2025 Conference: Cinema and Conflict, Galatasaray University, Istanbul, Turkey.	http://cinemacontext.nl/id/B001733
cc6358f71a156d9	Victoria	Kino Scheurlen heropent als Theater Victoria na overname door eigenaar Bellevue	https://homernetwork.github.io/vocabulary/venues/Single_screen_cinema;https://homernetwork.github.io/vocabulary/venues/Cinema;https://homernetwork.github.io/vocabulary/venues/Public_venue	Single screen cinema;Cinema;Public venue	1924-12-23		Paramaribo			Keizerstraat	5.82671845373207	-55.1566030900556	Van Oort, T. (2025). Asian Film Exhibition in Suriname (1930s—1970s). In Panel 24: Beyond Hollywood: Resistant Experiences of Cinema-going in the Caribbean [Conference session]. HoMER 2025 Conference: Cinema and Conflict, Galatasaray University, Istanbul, Turkey.	http://cinemacontext.nl/id/B001706
cc6358ff1f6b1cb	De Kroon		https://homernetwork.github.io/vocabulary/venues/Single_screen_cinema;https://homernetwork.github.io/vocabulary/venues/Cinema;https://homernetwork.github.io/vocabulary/venues/Public_venue	Single screen cinema;Cinema;Public venue	1928-01-01	1929-12-31	Paramaribo			Koningstraat			Van Oort, T. (2025). Asian Film Exhibition in Suriname (1930s—1970s). In Panel 24: Beyond Hollywood: Resistant Experiences of Cinema-going in the Caribbean [Conference session]. HoMER 2025 Conference: Cinema and Conflict, Galatasaray University, Istanbul, Turkey.	http://cinemacontext.nl/id/B001776
cc635911c79a399	Leliebioscoop	De Leliebioscoop werd geëxploiteerd in het Thalia theater	https://homernetwork.github.io/vocabulary/venues/Single_screen_cinema;https://homernetwork.github.io/vocabulary/venues/Cinema;https://homernetwork.github.io/vocabulary/venues/Public_venue	Single screen cinema;Cinema;Public venue	1920-07-24	1923-12-31	Paramaribo			Wagenwegstraat	5.83081098696097	-55.1598579902848	Van Oort, T. (2025). Asian Film Exhibition in Suriname (1930s—1970s). In Panel 24: Beyond Hollywood: Resistant Experiences of Cinema-going in the Caribbean [Conference session]. HoMER 2025 Conference: Cinema and Conflict, Galatasaray University, Istanbul, Turkey.	http://cinemacontext.nl/id/B001748
cc63593a2d1c113	Chung Fa		https://homernetwork.github.io/vocabulary/venues/Single_screen_cinema;https://homernetwork.github.io/vocabulary/venues/Cinema;https://homernetwork.github.io/vocabulary/venues/Public_venue	Single screen cinema;Cinema;Public venue	1961-02-18		Groningen (Saramacca)			onbekend			Van Oort, T. (2025). Asian Film Exhibition in Suriname (1930s—1970s). In Panel 24: Beyond Hollywood: Resistant Experiences of Cinema-going in the Caribbean [Conference session]. HoMER 2025 Conference: Cinema and Conflict, Galatasaray University, Istanbul, Turkey.	http://cinemacontext.nl/id/B001732
cc6359445107f36	Leter	Kino Leter of Theater Leter; bij aanvraag vergunning wordt gesproken van 'Spoorbaan' als adres. Precieze opening niet bekend, aanvraag vergunning in 1950 in de krant.	https://homernetwork.github.io/vocabulary/venues/Single_screen_cinema;https://homernetwork.github.io/vocabulary/venues/Cinema;https://homernetwork.github.io/vocabulary/venues/Public_venue	Single screen cinema;Cinema;Public venue	1950-01-01		Lelydorp			Pad van Wanica			Van Oort, T. (2025). Asian Film Exhibition in Suriname (1930s—1970s). In Panel 24: Beyond Hollywood: Resistant Experiences of Cinema-going in the Caribbean [Conference session]. HoMER 2025 Conference: Cinema and Conflict, Galatasaray University, Istanbul, Turkey.	http://cinemacontext.nl/id/B001762
cc635949901297e	Ansoe		https://homernetwork.github.io/vocabulary/venues/Single_screen_cinema;https://homernetwork.github.io/vocabulary/venues/Cinema;https://homernetwork.github.io/vocabulary/venues/Public_venue	Single screen cinema;Cinema;Public venue	1959-11-28		Meerzorg			onbekend	5.79773120492152	-55.1297402988766	Van Oort, T. (2025). Asian Film Exhibition in Suriname (1930s—1970s). In Panel 24: Beyond Hollywood: Resistant Experiences of Cinema-going in the Caribbean [Conference session]. HoMER 2025 Conference: Cinema and Conflict, Galatasaray University, Istanbul, Turkey.	http://cinemacontext.nl/id/B001750
cc635951c8cc072	Beatrix Theater		https://homernetwork.github.io/vocabulary/venues/Single_screen_cinema;https://homernetwork.github.io/vocabulary/venues/Cinema;https://homernetwork.github.io/vocabulary/venues/Public_venue	Single screen cinema;Cinema;Public venue	1955-03-26		Moengo			Cotticastraat	5.61635981130255	-54.4019805137515	Van Oort, T. (2025). Asian Film Exhibition in Suriname (1930s—1970s). In Panel 24: Beyond Hollywood: Resistant Experiences of Cinema-going in the Caribbean [Conference session]. HoMER 2025 Conference: Cinema and Conflict, Galatasaray University, Istanbul, Turkey.	http://cinemacontext.nl/id/B001779
cc6388d06aa0fdd	Paranam Theater		https://homernetwork.github.io/vocabulary/venues/Single_screen_cinema;https://homernetwork.github.io/vocabulary/venues/Cinema;https://homernetwork.github.io/vocabulary/venues/Public_venue	Single screen cinema;Cinema;Public venue	1946-01-25		Paranam			onbekend			Van Oort, T. (2025). Asian Film Exhibition in Suriname (1930s—1970s). In Panel 24: Beyond Hollywood: Resistant Experiences of Cinema-going in the Caribbean [Conference session]. HoMER 2025 Conference: Cinema and Conflict, Galatasaray University, Istanbul, Turkey.	http://cinemacontext.nl/id/B001739
cc641c64235e54f	Sitalsing	Sinds 1911 vertoonde Sital Sing films, vanaf 1924 met 'dynamo' van Thalia in kino Sital Sing aan de Voorstraat. Openingsfilm in 1924: Tarzan. Vanaf 1934 overgenomen en voortgezet onder de naam Theater Nickerie	https://homernetwork.github.io/vocabulary/venues/Single_screen_cinema;https://homernetwork.github.io/vocabulary/venues/Cinema;https://homernetwork.github.io/vocabulary/venues/Public_venue	Single screen cinema;Cinema;Public venue	1924-10-01	1934-12-31	Nieuw Nickerie			Voorstraat			Van Oort, T. (2025). Asian Film Exhibition in Suriname (1930s—1970s). In Panel 24: Beyond Hollywood: Resistant Experiences of Cinema-going in the Caribbean [Conference session]. HoMER 2025 Conference: Cinema and Conflict, Galatasaray University, Istanbul, Turkey.	http://cinemacontext.nl/id/B001740
cc641c64b99c2b9	Theater Nickerie	Voorheen Sital Sing en op zeker moment gewijzigd in Volkstheater en exploitatie overgenomen door Bellevue, Paramaribo. Niet te verwarren met het latere Volkstheater op de Achterstraat...	https://homernetwork.github.io/vocabulary/venues/Single_screen_cinema;https://homernetwork.github.io/vocabulary/venues/Cinema;https://homernetwork.github.io/vocabulary/venues/Public_venue	Single screen cinema;Cinema;Public venue	1934-01-01		Nieuw Nickerie			Voorstraat			Van Oort, T. (2025). Asian Film Exhibition in Suriname (1930s—1970s). In Panel 24: Beyond Hollywood: Resistant Experiences of Cinema-going in the Caribbean [Conference session]. HoMER 2025 Conference: Cinema and Conflict, Galatasaray University, Istanbul, Turkey.	http://cinemacontext.nl/id/B001769
cc641c66c22610c	Gaiety Theater	Bij de opening in 1929 bleef men dansen tot 3 uur in de nacht. Eerste geluidsfilm op 1 september 1935. Eind 1935 is de exploitatie in handen gekomen van de directie van Bellevue, Paramaribo. In de jaren '40 is het theater actief, want wordt genoemd in De Nickeriaan. Met de opening van concurrent Juliana krijgt het theater een opknapbeurt en heropent het in de loop van 1950 als Het Volkstheater	https://homernetwork.github.io/vocabulary/venues/Single_screen_cinema;https://homernetwork.github.io/vocabulary/venues/Cinema;https://homernetwork.github.io/vocabulary/venues/Public_venue	Single screen cinema;Cinema;Public venue	1929-08-01	1950-12-31	Nieuw Nickerie			Achterstraat			Van Oort, T. (2025). Asian Film Exhibition in Suriname (1930s—1970s). In Panel 24: Beyond Hollywood: Resistant Experiences of Cinema-going in the Caribbean [Conference session]. HoMER 2025 Conference: Cinema and Conflict, Galatasaray University, Istanbul, Turkey.	http://cinemacontext.nl/id/B001708
cc641c6daab6217	Juliana		https://homernetwork.github.io/vocabulary/venues/Single_screen_cinema;https://homernetwork.github.io/vocabulary/venues/Cinema;https://homernetwork.github.io/vocabulary/venues/Public_venue	Single screen cinema;Cinema;Public venue	1949-11-05		Nieuw Nickerie			Gouverneurstraat	5.9442141800113	-56.9896963407799	Van Oort, T. (2025). Asian Film Exhibition in Suriname (1930s—1970s). In Panel 24: Beyond Hollywood: Resistant Experiences of Cinema-going in the Caribbean [Conference session]. HoMER 2025 Conference: Cinema and Conflict, Galatasaray University, Istanbul, Turkey.	http://cinemacontext.nl/id/B001765
cc641c71013ed31	Volkstheater	Gaiety theater heropende na verbouwing als Volkstheater in 1950. Afgebrand in mei 1961 en heropend in nieuw gebouw in augustus 1962.	https://homernetwork.github.io/vocabulary/venues/Single_screen_cinema;https://homernetwork.github.io/vocabulary/venues/Cinema;https://homernetwork.github.io/vocabulary/venues/Public_venue	Single screen cinema;Cinema;Public venue	1950-07-01		Nieuw Nickerie			Achterstraat			Van Oort, T. (2025). Asian Film Exhibition in Suriname (1930s—1970s). In Panel 24: Beyond Hollywood: Resistant Experiences of Cinema-going in the Caribbean [Conference session]. HoMER 2025 Conference: Cinema and Conflict, Galatasaray University, Istanbul, Turkey.	http://cinemacontext.nl/id/B001780
cc641c733a221e8	Roshnie	Afrikaanse dansen bij opening verrassen het Hindoestaanse publiek, aldus verslag opening in De Nickeriaan	https://homernetwork.github.io/vocabulary/venues/Single_screen_cinema;https://homernetwork.github.io/vocabulary/venues/Cinema;https://homernetwork.github.io/vocabulary/venues/Public_venue	Single screen cinema;Cinema;Public venue	1962-09-01		Nieuw Nickerie			Oranje Nassaustraat	5.94618682867811	-56.9947922272406	Van Oort, T. (2025). Asian Film Exhibition in Suriname (1930s—1970s). In Panel 24: Beyond Hollywood: Resistant Experiences of Cinema-going in the Caribbean [Conference session]. HoMER 2025 Conference: Cinema and Conflict, Galatasaray University, Istanbul, Turkey.	http://cinemacontext.nl/id/B001747
cc641c77b381ae0	Bernhard theater		https://homernetwork.github.io/vocabulary/venues/Single_screen_cinema;https://homernetwork.github.io/vocabulary/venues/Cinema;https://homernetwork.github.io/vocabulary/venues/Public_venue	Single screen cinema;Cinema;Public venue	1952-10-01		Corantijnpolder						Van Oort, T. (2025). Asian Film Exhibition in Suriname (1930s—1970s). In Panel 24: Beyond Hollywood: Resistant Experiences of Cinema-going in the Caribbean [Conference session]. HoMER 2025 Conference: Cinema and Conflict, Galatasaray University, Istanbul, Turkey.	http://cinemacontext.nl/id/B001712
cc641c7b5894673	Perkash		https://homernetwork.github.io/vocabulary/venues/Single_screen_cinema;https://homernetwork.github.io/vocabulary/venues/Cinema;https://homernetwork.github.io/vocabulary/venues/Public_venue	Single screen cinema;Cinema;Public venue	1951-01-01		Boonackerpolder						Van Oort, T. (2025). Asian Film Exhibition in Suriname (1930s—1970s). In Panel 24: Beyond Hollywood: Resistant Experiences of Cinema-going in the Caribbean [Conference session]. HoMER 2025 Conference: Cinema and Conflict, Galatasaray University, Istanbul, Turkey.	http://cinemacontext.nl/id/B001734
cc641c7d05d6964	Masanga		https://homernetwork.github.io/vocabulary/venues/Single_screen_cinema;https://homernetwork.github.io/vocabulary/venues/Cinema;https://homernetwork.github.io/vocabulary/venues/Public_venue	Single screen cinema;Cinema;Public venue			Wageningen						Van Oort, T. (2025). Asian Film Exhibition in Suriname (1930s—1970s). In Panel 24: Beyond Hollywood: Resistant Experiences of Cinema-going in the Caribbean [Conference session]. HoMER 2025 Conference: Cinema and Conflict, Galatasaray University, Istanbul, Turkey.	
cc6437e66b27366	Diamond	Inmiddels een wijk in Paramaribo-Zuid maar in de jaren '70 nog een aparte plaats 'Bethesda'. Bood plaats aan 'enkele honderden' toeschouwers.	https://homernetwork.github.io/vocabulary/venues/Single_screen_cinema;https://homernetwork.github.io/vocabulary/venues/Cinema;https://homernetwork.github.io/vocabulary/venues/Public_venue	Single screen cinema;Cinema;Public venue	1969-09-08		Bethesda			Grensweg	5.79581609522816	-55.1722170952166	Van Oort, T. (2025). Asian Film Exhibition in Suriname (1930s—1970s). In Panel 24: Beyond Hollywood: Resistant Experiences of Cinema-going in the Caribbean [Conference session]. HoMER 2025 Conference: Cinema and Conflict, Galatasaray University, Istanbul, Turkey.	http://cinemacontext.nl/id/B001725
cc6437eeb807de5	Milan	Opvolger van Chung Fa.	https://homernetwork.github.io/vocabulary/venues/Single_screen_cinema;https://homernetwork.github.io/vocabulary/venues/Cinema;https://homernetwork.github.io/vocabulary/venues/Public_venue	Single screen cinema;Cinema;Public venue			Groningen (Saramacca)			onbekend			Van Oort, T. (2025). Asian Film Exhibition in Suriname (1930s—1970s). In Panel 24: Beyond Hollywood: Resistant Experiences of Cinema-going in the Caribbean [Conference session]. HoMER 2025 Conference: Cinema and Conflict, Galatasaray University, Istanbul, Turkey.	http://cinemacontext.nl/id/B001713
cc6437f3b167f3e	Kino Leter	Exacte openingsdatum is niet bekend, alleen vergunningsaanvraag in januari 1950	https://homernetwork.github.io/vocabulary/venues/Single_screen_cinema;https://homernetwork.github.io/vocabulary/venues/Cinema;https://homernetwork.github.io/vocabulary/venues/Public_venue	Single screen cinema;Cinema;Public venue	1950-01-01		Lelydorp			Verlengde Pad van Wanica			Van Oort, T. (2025). Asian Film Exhibition in Suriname (1930s—1970s). In Panel 24: Beyond Hollywood: Resistant Experiences of Cinema-going in the Caribbean [Conference session]. HoMER 2025 Conference: Cinema and Conflict, Galatasaray University, Istanbul, Turkey.	http://cinemacontext.nl/id/B001756
cc6437f8c7b64ff	Munnikon theater	Dit betreft het oude houten Bellevue theater uit Paramaribo dat opnieuw is opgebouwd in Moengo. Precieze locatie is niet bekend. Bij de opening was Dhr. De Munninck aanwezig, directeur van de Surinaamse Bauxiet Maatschappij; kennelijk is het theater naar hem vernoemd. In de volksmond werd het al snel verbasterd tot 'Money Come' theater... Namen die vermoedelijk betrokken waren bij de exploitatie: Jie Sam Foek en Burside.	https://homernetwork.github.io/vocabulary/venues/Single_screen_cinema;https://homernetwork.github.io/vocabulary/venues/Cinema;https://homernetwork.github.io/vocabulary/venues/Public_venue	Single screen cinema;Cinema;Public venue	1929-08-08		Moengo			Onbekend			Van Oort, T. (2025). Asian Film Exhibition in Suriname (1930s—1970s). In Panel 24: Beyond Hollywood: Resistant Experiences of Cinema-going in the Caribbean [Conference session]. HoMER 2025 Conference: Cinema and Conflict, Galatasaray University, Istanbul, Turkey.	http://cinemacontext.nl/id/B001755
cc6437fecead38b	[Amerikaanse bioscoop]	Kennelijk runde het Amerikaanse leger een bioscoop op Zanderij.	https://homernetwork.github.io/vocabulary/venues/Single_screen_cinema;https://homernetwork.github.io/vocabulary/venues/Cinema;https://homernetwork.github.io/vocabulary/venues/Public_venue	Single screen cinema;Cinema;Public venue	1942-11-01		Zanderij			Onbekend			Van Oort, T. (2025). Asian Film Exhibition in Suriname (1930s—1970s). In Panel 24: Beyond Hollywood: Resistant Experiences of Cinema-going in the Caribbean [Conference session]. HoMER 2025 Conference: Cinema and Conflict, Galatasaray University, Istanbul, Turkey.	http://cinemacontext.nl/id/B001728
cc6438203880fce	Metro		https://homernetwork.github.io/vocabulary/venues/Multiplex;https://homernetwork.github.io/vocabulary/venues/Cinema;https://homernetwork.github.io/vocabulary/venues/Public_venue	Multiplex;Cinema;Public venue	1974-01-18		Paramaribo			Ergens in Uitvlucht			Van Oort, T. (2025). Asian Film Exhibition in Suriname (1930s—1970s). In Panel 24: Beyond Hollywood: Resistant Experiences of Cinema-going in the Caribbean [Conference session]. HoMER 2025 Conference: Cinema and Conflict, Galatasaray University, Istanbul, Turkey.	http://cinemacontext.nl/id/B001711
cc643eaf355086e	Taj Mahal		https://homernetwork.github.io/vocabulary/venues/Multipurpose_venue;https://homernetwork.github.io/vocabulary/venues/Public_venue	Ontspanningszaal;Public venue	1969-04-23		Kwatta			Middenpad	5.84385422943097	-55.2159687830775	Van Oort, T. (2025). Asian Film Exhibition in Suriname (1930s—1970s). In Panel 24: Beyond Hollywood: Resistant Experiences of Cinema-going in the Caribbean [Conference session]. HoMER 2025 Conference: Cinema and Conflict, Galatasaray University, Istanbul, Turkey.	http://cinemacontext.nl/id/B001716
cc643eb693dc612	Shanti	Vroegste vermelding gevonden in augustus 1969, maar niet bekend wanneer geopend (of gesloten)	https://homernetwork.github.io/vocabulary/venues/Single_screen_cinema;https://homernetwork.github.io/vocabulary/venues/Cinema;https://homernetwork.github.io/vocabulary/venues/Public_venue	Single screen cinema;Cinema;Public venue	1960-01-01		Wanica			Leiding 10A			Van Oort, T. (2025). Asian Film Exhibition in Suriname (1930s—1970s). In Panel 24: Beyond Hollywood: Resistant Experiences of Cinema-going in the Caribbean [Conference session]. HoMER 2025 Conference: Cinema and Conflict, Galatasaray University, Istanbul, Turkey.	http://cinemacontext.nl/id/B001758
